"id","activity","description","longitude","latitude","missing","quality","address","postcode"
36,1,1787,-1.30023354171539,52.9276908637872,0.000887311446317658,0.0230700976042591,"M1, Sandiacre, Erewash, Derbyshire, East Midlands, England, NG10 5EG, United Kingdom","NG10 5EG"
49,1,1858,-1.24947586930138,53.0345252401088,0.000887311446317658,0.0230700976042591,"M1, Annesley CP, Hucknall, Ashfield, Nottinghamshire, East Midlands, England, NG16 1DY, United Kingdom","NG16 1DY"
66,1,1640,-1.19967870958693,52.6110568267452,0.000887311446317658,0.028393966282165,"M1, Leicester Forest East, Blaby, Leicestershire, East Midlands, England, LE3 3GB, United Kingdom","LE3 3GB"
70,1,6831,-2.50791789128287,53.3737612466491,0.000887311446317658,0.0292812777284827,"M6, Appleton, Lymm, Warrington, North West England, England, WA13 0PH, United Kingdom","WA13 0PH"
74,1,1848,-1.24389459422563,53.0168438863603,0.000887311446317658,0.0230700976042591,"M1, Annesley CP, Hucknall, Ashfield, Nottinghamshire, East Midlands, England, NG16 1DY, United Kingdom","NG16 1DY"
87,1,1820,-1.24968594385032,52.9794139703691,0.000887311446317658,0.0275066548358474,"M1, Trowell Moor, Trowell, Broxtowe, Nottinghamshire, East Midlands, England, NG9 3PL, United Kingdom","NG9 3PL"
119,1,1833,-1.23190329827427,52.9936921282007,0.000887311446317658,0.0275066548358474,"M1, Assarts Farm Estate, Nuthall CP, Broxtowe, Nottinghamshire, East Midlands, England, NG16 1DP, United Kingdom","NG16 1DP"
154,1,531,-0.226058502767254,51.7963604052188,0.000887311446317658,0.0257320319432121,"A1(M), Handside, Stanborough, Welwyn Hatfield, Hertfordshire, East of England, England, AL8 7TL, United Kingdom","AL8 7TL"
180,1,1842,-1.23559313826897,53.0074691453984,0.000887311446317658,0.0204081632653061,"M1, Annesley CP, Hucknall, Ashfield, Nottinghamshire, East Midlands, England, NG16 1DY, United Kingdom","NG16 1DY"
189,1,977,-1.34784805403429,53.0932302662112,0.000887311446317658,0.0195208518189885,"A38, Pinxton, Bolsover, Derbyshire, East Midlands, England, DE55 4RH, United Kingdom","DE55 4RH"
203,1,3249,-0.435498765001495,51.315683798588,0.000887311446317658,0.028393966282165,"M25, Hatchford, Elmbridge, Surrey, South East England, England, KT11 1PH, United Kingdom","KT11 1PH"
322,1,2483,0.144236505500228,51.7150643196301,0.000887311446317658,0.0266193433895297,"M11, North Weald Bassett, Hastingwood, Epping Forest, Essex, East of England, England, CM16 6HL, United Kingdom","CM16 6HL"
411,1,3298,-0.510489246744765,51.376488340855,0.000887311446317658,0.0275066548358474,"Greenacres Mobile home park, M25, Ottershaw, Runnymede, Surrey, South East England, England, KT16 9SA, United Kingdom","KT16 9SA"
463,1,1783,-1.30013920417839,52.924310251328,0.000887311446317658,0.0248447204968944,"M1, Sandiacre, Erewash, Derbyshire, East Midlands, England, NG10 5EG, United Kingdom","NG10 5EG"
471,1,7979,-1.31477771536746,52.5420877390366,0.000887311446317658,0.0230700976042591,"M69, Burbage, Earl Shilton, Hinckley and Bosworth, Leicestershire, East Midlands, England, LE10 3AJ, United Kingdom","LE10 3AJ"
479,1,3296,-0.510676093921177,51.3773719751275,0.000887311446317658,0.028393966282165,"Greenacres Mobile home park, M25, Ottershaw, Runnymede, Surrey, South East England, England, KT16 9SA, United Kingdom","KT16 9SA"
494,1,96,-0.520245315781889,52.3921379275005,0.000887311446317658,0.0212954747116238,"A14, Thrapston, North Northamptonshire, East Midlands, England, NN14 4PT, United Kingdom","NN14 4PT"
496,1,3377,-0.496523916850801,51.4877713443817,0.000887311446317658,0.0257320319432121,"M25, Colnbrook with Poyle, London Borough of Hillingdon, London, Slough, South East England, England, SL3 0EB, United Kingdom","SL3 0EB"
530,1,6936,-2.69204187453718,53.6475804489031,0.000887311446317658,0.028393966282165,"M6, Yew Tree Farm, Charnock Richard, Chorley, Lancashire, North West England, England, PR7 5LR, United Kingdom","PR7 5LR"
560,1,1863,-1.25567079880937,53.0436883199008,0.000887311446317658,0.0257320319432121,"M1, Annesley CP, Hucknall, Ashfield, Nottinghamshire, East Midlands, England, NG16 1DY, United Kingdom","NG16 1DY"
585,1,1844,-1.23934449190754,53.0102617729555,0.000887311446317658,0.0195208518189885,"M1, Annesley CP, Hucknall, Ashfield, Nottinghamshire, East Midlands, England, NG16 1DY, United Kingdom","NG16 1DY"
595,1,6928,-2.69437838154516,53.5917670149229,0.000887311446317658,0.0292812777284827,"M6, Shevington Vale, Shevington, Wigan, Lancashire, Greater Manchester, England, WN6 9RB, United Kingdom","WN6 9RB"
671,1,85,-0.683976325800089,52.3752194247711,0.000887311446317658,0.0230700976042591,"A14, Barton Seagrave, North Northamptonshire, East Midlands, England, NN15 6TP, United Kingdom","NN15 6TP"
699,1,3150,-0.152384454337737,51.2668747381252,0.000887311446317658,0.0266193433895297,"M25, Sunacre, Merstham, Reigate and Banstead, Surrey, South East England, England, RH1 3BX, United Kingdom","RH1 3BX"
713,1,1790,-1.29571855016633,52.934586132444,0.000887311446317658,0.0186335403726708,"M1, Sandiacre, Erewash, Derbyshire, East Midlands, England, DE7 4QR, United Kingdom","DE7 4QR"
732,1,7323,-2.62970005685971,53.7186890117191,0.000887311446317658,0.0292812777284827,"M61, Seed Lee, Bridge View Farm, Gregson Lane, South Ribble, Lancashire, North West England, England, PR5 8LB, United Kingdom","PR5 8LB"
756,1,1862,-1.25565383228066,53.0429420984394,0.000887311446317658,0.0266193433895297,"M1, Nuthall CP, Watnall, Broxtowe, Nottinghamshire, East Midlands, England, NG16 1DY, United Kingdom","NG16 1DY"
779,1,1005,-0.524366022214383,52.3805011647613,0.000887311446317658,0.0195208518189885,"A45, Denford Ash, Denford, Thrapston, North Northamptonshire, East Midlands, England, NN14 4EW, United Kingdom","NN14 4EW"
782,1,633,-0.219527303011912,51.928200779001,0.000887311446317658,0.0292812777284827,"A1(M), Fishers Green, Stevenage, Hertfordshire, East of England, England, SG1 4FD, United Kingdom","SG1 4FD"
807,1,3392,-0.500598647404092,51.5062396603288,0.000887311446317658,0.0292812777284827,"M25, Richings Park, Iver, Thorney, Buckinghamshire, South East England, England, SL0 9AQ, United Kingdom","SL0 9AQ"
817,1,995,-1.54711571729084,52.6914454197889,0.000887311446317658,0.0257320319432121,"M42, Appleby Magna, Appleby Parva, North West Leicestershire, Leicestershire, East Midlands, England, DE12 8AA, United Kingdom","DE12 8AA"
832,1,90,-0.637301188346062,52.3815418037018,0.000887311446317658,0.0195208518189885,"A14, Duck End Farm, Cranford, North Northamptonshire, East Midlands, England, NN14 3AL, United Kingdom","NN14 3AL"
946,1,1823,-1.24496467388692,52.9828449315648,0.000887311446317658,0.0266193433895297,"M1, Strelley, Broxtowe, Nottinghamshire, East Midlands, England, NG16 2SU, United Kingdom","NG16 2SU"
964,1,1809,-1.26542830324086,52.9635739013301,0.000887311446317658,0.0292812777284827,"Moto Trowell Services, Waterloo Lane, Trowell Moor, Trowell, City of Nottingham, Nottinghamshire, East Midlands, England, NG9 3PL, United Kingdom","NG9 3PL"
983,1,1786,-1.30020075408253,52.927879450473,0.000887311446317658,0.0248447204968944,"M1, Sandiacre, Erewash, Derbyshire, East Midlands, England, NG10 5EG, United Kingdom","NG10 5EG"
1072,1,3380,-0.494267617948596,51.4911145295923,0.000887311446317658,0.0257320319432121,"M25, Colnbrook with Poyle, London Borough of Hillingdon, London, Slough, South East England, England, SL3 0EB, United Kingdom","SL3 0EB"
1080,1,3151,-0.152235069827681,51.2670252605582,0.000887311446317658,0.0266193433895297,"M25, Sunacre, Gatton, Reigate and Banstead, Surrey, South East England, England, RH1 3BX, United Kingdom","RH1 3BX"
1091,1,1792,-1.29006315376357,52.9374201650346,0.000887311446317658,0.0230700976042591,"M1, Sandiacre, Erewash, Derbyshire, East Midlands, England, DE7 4QR, United Kingdom","DE7 4QR"
1133,1,3406,-0.499441059752209,51.5322393061442,0.000887311446317658,0.0275066548358474,"M25, Richings Park, Iver, Buckinghamshire, South East England, England, SL0 9BD, United Kingdom","SL0 9BD"
1145,1,605,-0.206373919681701,51.8885447658296,0.000887311446317658,0.028393966282165,"A1(M), Norton Green, Stevenage, Hertfordshire, East of England, England, SG1 2BD, United Kingdom","SG1 2BD"
1258,1,7983,-1.19809806729775,52.6005367653218,0.000887311446317658,0.0204081632653061,"M69, Lubbesthorpe, Enderby, Blaby, Leicestershire, East Midlands, England, LE19 4AZ, United Kingdom","LE19 4AZ"
1273,1,882,0.374623858602979,51.4104284823087,0.000887311446317658,0.0275066548358474,"Watling Street, Singlewell, Gravesend, Gravesham, Kent, South East England, England, DA12 5UR, United Kingdom","DA12 5UR"
1279,1,1850,-1.24480127320483,53.0204094102892,0.000887311446317658,0.0221827861579414,"M1, Annesley CP, Hucknall, Ashfield, Nottinghamshire, East Midlands, England, NG16 1DY, United Kingdom","NG16 1DY"
1300,1,57,-0.84522147388283,52.4065734883749,0.000887311446317658,0.0239574090505768,"A14, Harrington, Rothwell, North Northamptonshire, East Midlands, England, NN14 1LW, United Kingdom","NN14 1LW"
1326,1,69,-0.76284860159233,52.4120427294858,0.000887311446317658,0.0230700976042591,"A14, Thorpe Malsor, Rothwell, North Northamptonshire, East Midlands, England, NN16 8XF, United Kingdom","NN16 8XF"
1471,1,56,-1.14368857801289,52.3955288768035,0.000887311446317658,0.0257320319432121,"A14, Clay Coton, West Northamptonshire, East Midlands, England, NN6 6JT, United Kingdom","NN6 6JT"
1518,1,1857,-1.24983171131794,53.0346443430305,0.000887311446317658,0.0257320319432121,"M1, Nuthall CP, Watnall, Broxtowe, Nottinghamshire, East Midlands, England, NG16 1DY, United Kingdom","NG16 1DY"
1522,1,3307,-0.531095305498978,51.392134747015,0.000887311446317658,0.0292812777284827,"M25, Almners Priory, Lyne, Runnymede, Surrey, South East England, England, KT16 0AA, United Kingdom","KT16 0AA"
1603,1,880,0.368261663615992,51.4125356684099,0.000887311446317658,0.028393966282165,"Watling Street, Singlewell, Gravesend, Gravesham, Kent, South East England, England, DA12 5UR, United Kingdom","DA12 5UR"
1639,1,3210,-0.330137896214754,51.3134649380287,0.000887311446317658,0.0266193433895297,"M25, Lower Ashtead, Mole Valley, Surrey, South East England, England, KT22 7QF, United Kingdom","KT22 7QF"
1664,1,1621,-1.19375772402172,52.4351690673441,0.000887311446317658,0.0221827861579414,"M1, Lutterworth, Shawell, Harborough, Leicestershire, East Midlands, England, LE17 4HP, United Kingdom","LE17 4HP"
1707,1,1802,-1.27668515572244,52.9518486430432,0.000887311446317658,0.0230700976042591,"M1, Trowell, Broxtowe, Nottinghamshire, East Midlands, England, NG9 3RG, United Kingdom","NG9 3RG"
1709,1,3295,-0.50898545430707,51.3750124119939,0.000887311446317658,0.028393966282165,"M25, Ottershaw, Runnymede, Surrey, South East England, England, KT16 9SA, United Kingdom","KT16 9SA"
1735,1,7984,-1.19768784683739,52.6011722772355,0.000887311446317658,0.0212954747116238,"M69, Lubbesthorpe, Enderby, Blaby, Leicestershire, East Midlands, England, LE19 4AZ, United Kingdom","LE19 4AZ"
1797,1,1847,-1.24420603542004,53.0169357542259,0.000887311446317658,0.0248447204968944,"M1, Nuthall CP, Watnall, Broxtowe, Nottinghamshire, East Midlands, England, NG16 1DY, United Kingdom","NG16 1DY"
1888,1,6829,-2.51041698049407,53.3640605673529,0.000887311446317658,0.028393966282165,"M6, Appleton, Lymm, Warrington, North West England, England, WA13 0PH, United Kingdom","WA13 0PH"
1940,1,3369,-0.504551195466231,51.4744213372632,0.000887311446317658,0.0248447204968944,"M25, London Borough of Hillingdon, Spelthorne, Surrey, South East England, England, SL3 0FD, United Kingdom","SL3 0FD"
1999,1,4167,-1.08451289120013,50.8383710050277,0.000887311446317658,0.0239574090505768,"M27, Hilsea, Tipner, Portsmouth, South East England, England, PO6 3PQ, United Kingdom","PO6 3PQ"
2040,1,1824,-1.24157050244697,52.9844503388795,0.000887311446317658,0.0257320319432121,"M1, Strelley, Broxtowe, Nottinghamshire, East Midlands, England, NG16 2SU, United Kingdom","NG16 2SU"
2104,1,1674,-1.27464463152998,52.7663629082697,0.000887311446317658,0.0292812777284827,"M1, Shepshed, Charnwood, Leicestershire, East Midlands, England, LE12 9DJ, United Kingdom","LE12 9DJ"
2110,1,94,-0.530908311096319,52.3896724894412,0.000887311446317658,0.0230700976042591,"A14, Thrapston, North Northamptonshire, East Midlands, England, NN14 4RX, United Kingdom","NN14 4RX"
2116,1,89,-0.64881277200588,52.3798577383051,0.000887311446317658,0.0230700976042591,"A14, Duck End Farm, Cranford, North Northamptonshire, East Midlands, England, NN14 3AL, United Kingdom","NN14 3AL"
2149,1,3306,-0.531459940883348,51.3919684732304,0.000887311446317658,0.0292812777284827,"M25, Almners Priory, Lyne, Runnymede, Surrey, South East England, England, KT16 0AA, United Kingdom","KT16 0AA"
2156,1,62,-0.799505055207818,52.4167901933257,0.000887311446317658,0.0239574090505768,"Chapel, A14, Rothwell, North Northamptonshire, East Midlands, England, NN14 1RX, United Kingdom","NN14 1RX"
2196,1,6841,-2.52495063659175,53.4081327336525,0.000887311446317658,0.0292812777284827,"M6, Woolston Grange, Woolston, Warrington, North West England, England, WA3 6DN, United Kingdom","WA3 6DN"
2219,1,3253,-0.441190578178362,51.3183764571986,0.000887311446317658,0.0275066548358474,"M25, Hatchford, Elmbridge, Surrey, South East England, England, KT11 1PH, United Kingdom","KT11 1PH"
2224,1,994,-1.54742575493017,52.691509529908,0.000887311446317658,0.0212954747116238,"M42, Appleby Magna, Appleby Parva, North West Leicestershire, Leicestershire, East Midlands, England, DE12 8AA, United Kingdom","DE12 8AA"
2234,1,1828,-1.23683298281916,52.9870358807493,0.000887311446317658,0.0248447204968944,"M1, Assarts Farm Estate, Nuthall CP, Broxtowe, Nottinghamshire, East Midlands, England, NG8 6PY, United Kingdom","NG8 6PY"
2237,1,996,-1.53906719732705,52.7026785521334,0.000887311446317658,0.0230700976042591,"A42, Stretton en le Field, Oakthorpe, North West Leicestershire, Leicestershire, East Midlands, England, DE12 8AA, United Kingdom","DE12 8AA"
2241,1,1793,-1.28985677096642,52.93730206967,0.000887311446317658,0.0221827861579414,"M1, Sandiacre, Erewash, Derbyshire, East Midlands, England, NG10 5EG, United Kingdom","NG10 5EG"
2247,1,1057,-0.376586401422162,51.6876992694012,0.000887311446317658,0.0266193433895297,"M1, Aldenham, Meriden, Watford, Hertfordshire, East of England, England, WD25 9AR, United Kingdom","WD25 9AR"
2256,1,329,1.13086429426562,52.0254241329491,0.000887311446317658,0.0292812777284827,"A14, Belstead, Babergh, Suffolk, East of England, England, IP8 3TD, United Kingdom","IP8 3TD"
2390,1,1861,-1.25367092057383,53.0403047779218,0.000887311446317658,0.0292812777284827,"M1, Annesley CP, Hucknall, Ashfield, Nottinghamshire, East Midlands, England, NG16 1DY, United Kingdom","NG16 1DY"
2430,1,80,-0.70433633442552,52.3727380311838,0.00354924578527063,0.0275066548358474,"A14, Barton Seagrave, North Northamptonshire, East Midlands, England, NN15 6XR, United Kingdom","NN15 6XR"
2554,1,1805,-1.27382272526808,52.9556966942999,0.000887311446317658,0.0230700976042591,"M1, Trowell Moor, Trowell, Broxtowe, Nottinghamshire, East Midlands, England, NG9 3PL, United Kingdom","NG9 3PL"
2559,1,1843,-1.23968679015504,53.0102909206358,0.000887311446317658,0.0195208518189885,"M1, Nuthall CP, Watnall, Broxtowe, Nottinghamshire, East Midlands, England, NG16 1DY, United Kingdom","NG16 1DY"
2587,1,1001,-1.43897001025134,52.7564289692921,0.000887311446317658,0.0204081632653061,"A42, Ashby-de-la-Zouch, Lount, North West Leicestershire, Leicestershire, East Midlands, England, LE65 1JR, United Kingdom","LE65 1JR"
2615,1,1059,-0.3809661355054,51.7048264507355,0.000887311446317658,0.0266193433895297,"M1, Abbots Langley, Garston Manor, Three Rivers, Hertfordshire, East of England, England, AL2 3UU, United Kingdom","AL2 3UU"
2685,1,527,-0.237646666522372,51.7635873015487,0.000887311446317658,0.0275066548358474,"Hatfield Tunnel, Roe Green, Hatfield, Welwyn Hatfield, Hertfordshire, East of England, England, AL10 0YA, United Kingdom","AL10 0YA"
2702,1,82,-0.695391708268754,52.3736916051993,0.000887311446317658,0.0204081632653061,"A14, Barton Seagrave, North Northamptonshire, East Midlands, England, NN15 5YQ, United Kingdom","NN15 5YQ"
2712,1,1785,-1.30046748458969,52.9279439459223,0.000887311446317658,0.0248447204968944,"M1, Sandiacre, Erewash, Derbyshire, East Midlands, England, DE7 4QR, United Kingdom","DE7 4QR"
2731,1,2952,0.237572083781732,51.4433250226422,0.000887311446317658,0.0266193433895297,"Canterbury Way, Stone, Dartford, Kent, South East England, England, DA2 6SF, United Kingdom","DA2 6SF"
2751,1,63,-0.799521950695669,52.4167094473074,0.000887311446317658,0.0275066548358474,"Chapel, A14, Rothwell, North Northamptonshire, East Midlands, England, NN14 1RX, United Kingdom","NN14 1RX"
2848,1,3382,-0.494633901200722,51.4926748891962,0.000887311446317658,0.028393966282165,"M25, Colnbrook with Poyle, London Borough of Hillingdon, London, Slough, South East England, England, SL3 0ED, United Kingdom","SL3 0ED"
2857,1,1058,-0.376315546382615,51.6875876242496,0.000887311446317658,0.0266193433895297,"M1, St Stephen, Meriden, Watford, Hertfordshire, East of England, England, WD25 9AR, United Kingdom","WD25 9AR"
2863,1,1693,-1.30150017286791,52.8024917125473,0.00443655723158829,0.0292812777284827,"M1, Long Whatton and Diseworth, Long Whatton, North West Leicestershire, Leicestershire, East Midlands, England, LE12 5DS, United Kingdom","LE12 5DS"
2883,1,1801,-1.27728024593001,52.9500723379879,0.000887311446317658,0.0221827861579414,"M1, Trowell, Broxtowe, Nottinghamshire, East Midlands, England, NG9 3RG, United Kingdom","NG9 3RG"
2903,1,1859,-1.25108739085634,53.0370523974383,0.000887311446317658,0.0239574090505768,"M1, Annesley CP, Hucknall, Ashfield, Nottinghamshire, East Midlands, England, NG16 1DY, United Kingdom","NG16 1DY"
2944,1,3407,-0.499167533155953,51.5322268143352,0.000887311446317658,0.0275066548358474,"M25, Richings Park, Iver, Buckinghamshire, South East England, England, SL0 9BD, United Kingdom","SL0 9BD"
2949,1,95,-0.527081732796603,52.3907307760979,0.000887311446317658,0.0266193433895297,"A14, Thrapston, North Northamptonshire, East Midlands, England, NN14 4RX, United Kingdom","NN14 4RX"
2969,1,1865,-1.25631117063983,53.0463441847752,0.000887311446317658,0.0239574090505768,"M1, Annesley CP, Hucknall, Ashfield, Nottinghamshire, East Midlands, England, NG16 1DY, United Kingdom","NG16 1DY"
2975,1,83,-0.6897059815835,52.3742131419245,0.000887311446317658,0.0221827861579414,"10, A14, Barton Seagrave, North Northamptonshire, East Midlands, England, NN15 6TP, United Kingdom","NN15 6TP"
2998,1,88,-0.661589572201373,52.3790590008556,0.000887311446317658,0.0212954747116238,"A14, Burton Latimer, North Northamptonshire, East Midlands, England, NN15 5JJ, United Kingdom","NN15 5JJ"
3106,1,564,-0.207177355982094,51.8358280617733,0.000887311446317658,0.028393966282165,"A1(M), Welwyn, Oaklands, Welwyn Hatfield, Hertfordshire, East of England, England, AL6 9FP, United Kingdom","AL6 9FP"
3120,1,1829,-1.23651752401914,52.988031639892,0.000887311446317658,0.0248447204968944,"M1, Assarts Farm Estate, Nuthall CP, Broxtowe, Nottinghamshire, East Midlands, England, NG8 6PY, United Kingdom","NG8 6PY"
3121,1,7981,-1.21677487860601,52.595582486186,0.000887311446317658,0.0212954747116238,"M69, Potters Marston, Blaby, Leicestershire, East Midlands, England, LE9 3LE, United Kingdom","LE9 3LE"
3175,1,1636,-1.19531826276749,52.598333323055,0.000887311446317658,0.0257320319432121,"M1, Enderby, Blaby, Leicestershire, East Midlands, England, LE19 4DB, United Kingdom","LE19 4DB"
3177,1,1784,-1.3001132194006,52.9240763709999,0.000887311446317658,0.0239574090505768,"M1, Sandiacre, Erewash, Derbyshire, East Midlands, England, NG10 5EG, United Kingdom","NG10 5EG"
3192,1,3381,-0.494770092386531,51.4911659420958,0.000887311446317658,0.0275066548358474,"M25, Colnbrook with Poyle, London Borough of Hillingdon, London, Slough, South East England, England, SL3 0EB, United Kingdom","SL3 0EB"
3199,1,1795,-1.28514811743374,52.9395302335592,0.000887311446317658,0.0239574090505768,"M1, Stanton by Dale, Erewash, Derbyshire, East Midlands, England, DE7 4QS, United Kingdom","DE7 4QS"
3281,1,1819,-1.25188399276121,52.9771804697656,0.000887311446317658,0.0257320319432121,"M1, Trowell Moor, Trowell, Broxtowe, Nottinghamshire, East Midlands, England, NG9 3PL, United Kingdom","NG9 3PL"
3286,1,888,0.387660083291115,51.4075376543715,0.000887311446317658,0.0266193433895297,"Watling Street, Henhurst, Cobham, Gravesham, Kent, South East England, England, DA12 5UD, United Kingdom","DA12 5UD"
3456,1,91,-0.590370969462771,52.3926979217656,0.000887311446317658,0.0204081632653061,"A14, Twywell, Cranford, North Northamptonshire, East Midlands, England, NN14 3AL, United Kingdom","NN14 3AL"
3482,1,1839,-1.23302553979959,53.00434245428,0.000887311446317658,0.0239574090505768,"M1, Nuthall CP, Watnall, Broxtowe, Nottinghamshire, East Midlands, England, NG16 1DY, United Kingdom","NG16 1DY"
3518,1,1639,-1.19990184021612,52.6109684349506,0.000887311446317658,0.028393966282165,"M1, Lubbesthorpe, Leicester Forest East, Blaby, Leicestershire, East Midlands, England, LE3 3GB, United Kingdom","LE3 3GB"
3540,1,7976,-1.31538095810306,52.5421721354509,0.000887311446317658,0.0248447204968944,"M69, Burbage, Earl Shilton, Hinckley and Bosworth, Leicestershire, East Midlands, England, LE10 3AJ, United Kingdom","LE10 3AJ"
3560,1,1834,-1.23201156955784,52.9934680965813,0.000887311446317658,0.0257320319432121,"M1, Assarts Farm Estate, Nuthall CP, Broxtowe, Nottinghamshire, East Midlands, England, NG16 1DP, United Kingdom","NG16 1DP"
3565,1,1835,-1.23130593085691,52.9962861396554,0.000887311446317658,0.0239574090505768,"M1, Assarts Farm Estate, Nuthall CP, Broxtowe, Nottinghamshire, East Midlands, England, NG16 1DH, United Kingdom","NG16 1DH"
3598,1,3251,-0.441290074916838,51.3184047579063,0.000887311446317658,0.028393966282165,"M25, Hatchford, Elmbridge, Surrey, South East England, England, KT11 1PH, United Kingdom","KT11 1PH"
3638,1,3250,-0.436495767172168,51.3163265807117,0.000887311446317658,0.0292812777284827,"M25, Hatchford, Elmbridge, Surrey, South East England, England, KT11 1PH, United Kingdom","KT11 1PH"
3665,1,7331,-2.64749136571056,53.7335505633094,0.000887311446317658,0.0292812777284827,"M61, Seed Lee, Higher Walton, South Ribble, Lancashire, North West England, England, PR5 6HL, United Kingdom","PR5 6HL"
3712,1,1647,-1.21957699773993,52.6365413365927,0.000887311446317658,0.0239574090505768,"M1, Kirby Muxloe, Blaby, Leicestershire, East Midlands, England, LE3 3LG, United Kingdom","LE3 3LG"
3746,1,58,-0.83496002588052,52.4099432396827,0.000887311446317658,0.0204081632653061,"A14, Harrington, Rothwell, North Northamptonshire, East Midlands, England, NN14 1LW, United Kingdom","NN14 1LW"
3752,1,1060,-0.380644106724927,51.7061438223484,0.000887311446317658,0.0257320319432121,"Mount Pleasant Lane, Waterdale, St Stephen, St Albans, Hertfordshire, East of England, England, AL2 3UZ, United Kingdom","AL2 3UZ"
3803,1,6937,-2.69181232823757,53.6474199870143,0.000887311446317658,0.028393966282165,"M6, Yew Tree Farm, Charnock Richard, Chorley, Lancashire, North West England, England, PR7 5LR, United Kingdom","PR7 5LR"
3817,1,1903,-1.30828232889785,53.0928452097551,0.000887311446317658,0.0275066548358474,"M1, Pinxton, Bolsover, Derbyshire, East Midlands, England, NG16 6HW, United Kingdom","NG16 6HW"
3825,1,595,-0.201700750522437,51.8774673746551,0.000887311446317658,0.028393966282165,"A1(M), Knebworth, Old Knebworth, North Hertfordshire, Hertfordshire, East of England, England, SG3 6PW, United Kingdom","SG3 6PW"
3871,1,1628,-1.19087514727476,52.4528423526633,0.000887311446317658,0.0230700976042591,"M1, Lutterworth, Harborough, Leicestershire, East Midlands, England, LE17 4FJ, United Kingdom","LE17 4FJ"
3926,1,3394,-0.500557800013359,51.506167200164,0.000887311446317658,0.0292812777284827,"M25, Richings Park, Iver, Thorney, Buckinghamshire, South East England, England, SL0 9AQ, United Kingdom","SL0 9AQ"
3965,1,1860,-1.25271246709594,53.0388065367939,0.000887311446317658,0.0239574090505768,"M1, Nuthall CP, Watnall, Broxtowe, Nottinghamshire, East Midlands, England, NG16 1DY, United Kingdom","NG16 1DY"
3982,1,1800,-1.27826160491273,52.9483343310604,0.000887311446317658,0.0212954747116238,"M1, Trowell, Broxtowe, Nottinghamshire, East Midlands, England, NG9 3RG, United Kingdom","NG9 3RG"
3995,1,1818,-1.25218381386236,52.9762025129965,0.000887311446317658,0.0248447204968944,"M1, Trowell Moor, Trowell, Broxtowe, Nottinghamshire, East Midlands, England, NG9 3PL, United Kingdom","NG9 3PL"
4039,1,84,-0.686971621261404,52.3747762074568,0.000887311446317658,0.0248447204968944,"A14, Barton Seagrave, North Northamptonshire, East Midlands, England, NN15 6TP, United Kingdom","NN15 6TP"
4046,1,79,-0.710033164959852,52.3718203263935,0.000887311446317658,0.0195208518189885,"A14, Pytchley, Burton Latimer, North Northamptonshire, East Midlands, England, NN15 6XT, United Kingdom","NN15 6XT"
4054,1,3385,-0.49429146987613,51.4969418021637,0.000887311446317658,0.028393966282165,"M25, Richings Park, Iver, Thorney, Buckinghamshire, South East England, England, SL0 9AL, United Kingdom","SL0 9AL"
4064,1,1815,-1.2554720516232,52.9702991068799,0.000887311446317658,0.028393966282165,"M1, Trowell Moor, Trowell, Broxtowe, Nottinghamshire, East Midlands, England, NG9 3PL, United Kingdom","NG9 3PL"
4076,1,1849,-1.24509767797902,53.0205101707081,0.000887311446317658,0.0248447204968944,"M1, Nuthall CP, Watnall, Broxtowe, Nottinghamshire, East Midlands, England, NG16 1DY, United Kingdom","NG16 1DY"
4085,1,7982,-1.21230311350839,52.597980112269,0.000887311446317658,0.0221827861579414,"M69, Lubbesthorpe, Enderby, Blaby, Leicestershire, East Midlands, England, LE19 4AT, United Kingdom","LE19 4AT"
4134,1,1821,-1.24902972936321,52.9803267456058,0.000887311446317658,0.028393966282165,"M1, Trowell Moor, Trowell, Broxtowe, Nottinghamshire, East Midlands, England, NG9 3PL, United Kingdom","NG9 3PL"
4164,1,1840,-1.23271309606734,53.0043134801604,0.000887311446317658,0.0248447204968944,"M1, Annesley CP, Hucknall, Ashfield, Nottinghamshire, East Midlands, England, NG16 1DY, United Kingdom","NG16 1DY"
4184,1,97,-0.515811592966498,52.3924420030269,0.000887311446317658,0.0212954747116238,"A14, Thrapston, North Northamptonshire, East Midlands, England, NN14 4PT, United Kingdom","NN14 4PT"
4246,1,1832,-1.233866768516,52.9913495923653,0.000887311446317658,0.0221827861579414,"M1, Assarts Farm Estate, Nuthall CP, Broxtowe, Nottinghamshire, East Midlands, England, NG16 1DA, United Kingdom","NG16 1DA"
4256,1,77,-0.717112850079732,52.3728503867444,0.000887311446317658,0.0230700976042591,"Odeon Cinemas, Pegasus Court, Kettering, North Northamptonshire, East Midlands, England, NN15 6XS, United Kingdom","NN15 6XS"
4308,1,998,-1.47080988311789,52.7334714877238,0.000887311446317658,0.0195208518189885,"A42, Packington, Willesley, North West Leicestershire, Leicestershire, East Midlands, England, LE65 2TX, United Kingdom","LE65 2TX"
4326,1,1814,-1.2557240776865,52.9703636103007,0.000887311446317658,0.028393966282165,"Oldmoor Pond, M1, Trowell Moor, Strelley, Broxtowe, Nottinghamshire, East Midlands, England, NG9 3PL, United Kingdom","NG9 3PL"
4369,1,1688,-1.29423503208907,52.7958863214168,0.000887311446317658,0.0230700976042591,"M1, Long Whatton and Diseworth, Long Whatton, North West Leicestershire, Leicestershire, East Midlands, England, LE12 5DS, United Kingdom","LE12 5DS"
4466,1,405,-0.320531440110096,52.5350175806797,0.000887311446317658,0.0292812777284827,"Great North Road, Alwalton, Huntingdonshire, Cambridgeshire, Haddon, Cambridgeshire and Peterborough, England, PE2 6YS, United Kingdom","PE2 6YS"
4520,1,1810,-1.26504323597778,52.9634546597602,0.000887311446317658,0.0292812777284827,"Moto Trowell Services, Waterloo Lane, Trowell Moor, Trowell, City of Nottingham, Nottinghamshire, East Midlands, England, NG9 3PL, United Kingdom","NG9 3PL"
4566,1,7977,-1.3150564522523,52.5421792507557,0.000887311446317658,0.0275066548358474,"M69, Burbage, Earl Shilton, Hinckley and Bosworth, Leicestershire, East Midlands, England, LE10 3AJ, United Kingdom","LE10 3AJ"
4700,1,1854,-1.24686807337721,53.028423000025,0.000887311446317658,0.0239574090505768,"M1, Annesley CP, Hucknall, Ashfield, Nottinghamshire, East Midlands, England, NG16 1DY, United Kingdom","NG16 1DY"
4784,1,1064,-0.382848847058291,51.7068216545698,0.000887311446317658,0.0292812777284827,"52320, M1, Waterdale, Abbots Langley, Three Rivers, Hertfordshire, East of England, England, AL2 3UZ, United Kingdom","AL2 3UZ"
4859,1,3165,-0.195137311845179,51.2593852865961,0.000887311446317658,0.0275066548358474,"M25, Margery Hall, Gatton, Reigate and Banstead, Surrey, South East England, England, RH2 9RL, United Kingdom","RH2 9RL"
4894,1,3294,-0.509204089693767,51.374916281975,0.000887311446317658,0.0266193433895297,"M25, Runnymede, Surrey, South East England, England, KT16 9SA, United Kingdom","KT16 9SA"
4899,1,391,-0.286456716641162,52.4827140472484,0.000887311446317658,0.0292812777284827,"Stilton Skate Park, A1(M), Stilton, Huntingdonshire, Cambridgeshire, Stilton, East of England, England, PE7 3RW, United Kingdom","PE7 3RW"
4917,1,2484,0.14362599459817,51.7159297805016,0.000887311446317658,0.0266193433895297,"M11, North Weald Bassett, Hastingwood, Epping Forest, Essex, East of England, England, CM16 6HL, United Kingdom","CM16 6HL"
4996,1,1804,-1.27361872025583,52.9563247143224,0.000887311446317658,0.0230700976042591,"M1, Trowell Moor, Trowell, Broxtowe, Nottinghamshire, East Midlands, England, NG9 3PL, United Kingdom","NG9 3PL"
5005,1,2497,0.199077345738406,51.8715940310035,0.00177462289263532,0.0275066548358474,"M11, Tilekiln Green, Great Hallingbury, Uttlesford, Essex, East of England, England, CM23 5SN, United Kingdom","CM23 5SN"
5087,1,1864,-1.25659176716622,53.0465077490409,0.000887311446317658,0.0248447204968944,"M1, Nuthall CP, Watnall, Broxtowe, Nottinghamshire, East Midlands, England, NG16 1DY, United Kingdom","NG16 1DY"
5130,1,1901,-1.3048519409841,53.089804795393,0.000887311446317658,0.028393966282165,"M1, Pinxton, Bolsover, Derbyshire, East Midlands, England, NG16 6HW, United Kingdom","NG16 6HW"
5196,1,3299,-0.509961474720932,51.37725496768,0.000887311446317658,0.028393966282165,"Green Lane, Ottershaw, Runnymede, Surrey, South East England, England, KT16 9SA, United Kingdom","KT16 9SA"
5250,1,1841,-1.23593572884214,53.0074803264314,0.000887311446317658,0.0204081632653061,"M1, Nuthall CP, Watnall, Broxtowe, Nottinghamshire, East Midlands, England, NG16 1DY, United Kingdom","NG16 1DY"
5253,1,6985,-2.63629799553075,53.7682147230153,0.000887311446317658,0.0275066548358474,"Samlesbury Interchange, Preston, Lancashire, North West England, England, PR5 0UH, United Kingdom","PR5 0UH"
5258,1,1838,-1.23110556325709,53.0008513213102,0.000887311446317658,0.0230700976042591,"M1, Annesley CP, Hucknall, Ashfield, Nottinghamshire, East Midlands, England, NG16 1DY, United Kingdom","NG16 1DY"
5333,1,883,0.381405469133576,51.4086541461736,0.000887311446317658,0.0275066548358474,"Singlewell Infrastructure Maintenance Depot, Watling Street, Henhurst, Cobham, Gravesham, Kent, South East England, England, DA12 5UD, United Kingdom","DA12 5UD"
5342,1,3378,-0.495739558416076,51.4897216261732,0.000887311446317658,0.028393966282165,"M25, Colnbrook with Poyle, London Borough of Hillingdon, London, Slough, South East England, England, SL3 0ED, United Kingdom","SL3 0ED"
5399,1,3356,-0.517367271368437,51.4597375824924,0.000887311446317658,0.028393966282165,"M25, Spelthorne, Surrey, South East England, England, TW19 6EQ, United Kingdom","TW19 6EQ"
5456,1,3206,-0.321923315142447,51.304606444666,0.000887311446317658,0.0239574090505768,"M25, Lower Ashtead, Ashtead, Mole Valley, Surrey, South East England, England, KT22 7GZ, United Kingdom","KT22 7GZ"
5486,1,1635,-1.19488016391535,52.5980696336088,0.000887311446317658,0.0257320319432121,"M1, Enderby, Blaby, Leicestershire, East Midlands, England, LE19 4DB, United Kingdom","LE19 4DB"
5595,1,81,-0.698274479739857,52.3735705326182,0.000887311446317658,0.0257320319432121,"A14, Barton Seagrave, North Northamptonshire, East Midlands, England, NN15 6UH, United Kingdom","NN15 6UH"
5605,1,1902,-1.3081353196103,53.0927005255778,0.000887311446317658,0.0266193433895297,"M1, Pinxton, Bolsover, Derbyshire, East Midlands, England, NG16 6HW, United Kingdom","NG16 6HW"
5748,1,636,-0.218592145486494,51.9294095908308,0.000887311446317658,0.028393966282165,"A1(M), Graveley, Todds Green, North Hertfordshire, Hertfordshire, East of England, England, SG4 7WH, United Kingdom","SG4 7WH"
5756,1,568,-0.204136770875741,51.8400169458172,0.000887311446317658,0.0257320319432121,"A1(M), Welwyn, Oaklands, Welwyn Hatfield, Hertfordshire, East of England, England, AL6 0SS, United Kingdom","AL6 0SS"
5818,1,1831,-1.23363128987148,52.9911862770599,0.000887311446317658,0.0230700976042591,"M1, Assarts Farm Estate, Nuthall CP, Broxtowe, Nottinghamshire, East Midlands, England, NG16 1DA, United Kingdom","NG16 1DA"
5842,1,3248,-0.435555832210214,51.3156935531471,0.000887311446317658,0.0292812777284827,"M25, Hatchford, Elmbridge, Surrey, South East England, England, KT11 1PH, United Kingdom","KT11 1PH"
5900,1,4166,-1.08547004789174,50.838810092158,0.000887311446317658,0.0239574090505768,"M27, Port Solent, Tipner, Portsmouth, South East England, England, PO6 4PS, United Kingdom","PO6 4PS"
5935,1,3390,-0.497418348039995,51.5026110493992,0.000887311446317658,0.0292812777284827,"M25, Richings Park, Iver, Thorney, Buckinghamshire, South East England, England, SL0 9AQ, United Kingdom","SL0 9AQ"
5964,1,1803,-1.27543770294775,52.9534681529578,0.000887311446317658,0.0230700976042591,"M1, Trowell, Broxtowe, Nottinghamshire, East Midlands, England, NG9 3RG, United Kingdom","NG9 3RG"
5965,1,1826,-1.24049641430182,52.9853963134318,0.000887311446317658,0.0248447204968944,"M1, Assarts Farm Estate, Nuthall CP, Broxtowe, Nottinghamshire, East Midlands, England, NG8 6PY, United Kingdom","NG8 6PY"
5976,1,3597,-0.338613484707598,51.7093877453068,0.000887311446317658,0.0292812777284827,"M25, Colney Street, St Stephen, St Albans, Hertfordshire, East of England, England, AL2 2AG, United Kingdom","AL2 2AG"
6091,1,1806,-1.26925765962657,52.9607298314596,0.000887311446317658,0.0239574090505768,"Moto Trowell Services, Waterloo Lane, Trowell Moor, Trowell, City of Nottingham, Nottinghamshire, East Midlands, England, NG9 3PL, United Kingdom","NG9 3PL"
6132,1,1827,-1.23723293194034,52.9871642844592,0.000887311446317658,0.0248447204968944,"M1, Assarts Farm Estate, Nuthall CP, Broxtowe, Nottinghamshire, East Midlands, England, NG8 6PY, United Kingdom","NG8 6PY"
6155,1,997,-1.53334019983696,52.7054339979857,0.000887311446317658,0.0248447204968944,"A42, Oakthorpe and Donisthorpe, Oakthorpe, North West Leicestershire, Leicestershire, East Midlands, England, DE12 7QU, United Kingdom","DE12 7QU"
6159,1,1782,-1.30041962918693,52.9244467436223,0.000887311446317658,0.0248447204968944,"M1, Sandiacre, Erewash, Derbyshire, East Midlands, England, DE7 4QR, United Kingdom","DE7 4QR"
6173,1,1845,-1.24255285843652,53.0134464093136,0.000887311446317658,0.0204081632653061,"M1, Nuthall CP, Watnall, Broxtowe, Nottinghamshire, East Midlands, England, NG16 1DY, United Kingdom","NG16 1DY"
6175,1,1791,-1.29466958332925,52.9350473711866,0.000887311446317658,0.0186335403726708,"Stoney Clouds Local Nature Reserve, M1, Sandiacre, Erewash, Derbyshire, East Midlands, England, NG10 5EG, United Kingdom","NG10 5EG"
6180,1,78,-0.711571891319643,52.3719449953163,0.000887311446317658,0.0195208518189885,"A14, Pytchley, Burton Latimer, North Northamptonshire, East Midlands, England, NN15 6XT, United Kingdom","NN15 6XT"
7237,1,9168,-1.34184116399113,51.1031194310997,0.00443655723158829,0.0248447204968944,"A34, Norton, Wonston, Sutton Scotney, Winchester, Hampshire, South East England, England, SO21 3JY, United Kingdom","SO21 3JY"
7238,1,9167,-1.34165447542207,51.1031903210447,0.00443655723158829,0.0248447204968944,"A34, Norton, Wonston, Sutton Scotney, Winchester, Hampshire, South East England, England, SO21 3JY, United Kingdom","SO21 3JY"
7242,1,9162,-1.33940018546392,51.1740278682656,0.00443655723158829,0.0212954747116238,"A34, Upper Bullington, Bullington, Test Valley, Hampshire, South East England, England, SO21 3FN, United Kingdom","SO21 3FN"
7269,1,9249,-1.29579104579291,51.7582235754794,0.0062111801242236,0.0292812777284827,"Botley Interchange, Western By-pass Road, Wytham, Vale of White Horse, Oxfordshire, South East England, England, OX2 9BQ, United Kingdom","OX2 9BQ"
7270,1,9248,-1.29564589285205,51.7582406892944,0.00354924578527063,0.0239574090505768,"Botley Interchange, Western By-pass Road, Wytham, Vale of White Horse, Oxfordshire, South East England, England, OX2 9BQ, United Kingdom","OX2 9BQ"
7278,1,9209,-0.784492319521189,51.529289729771,0.00532386867790594,0.0221827861579414,"A404, Stubbings, Bisham, Windsor and Maidenhead, South East England, England, SL6 5LH, United Kingdom","SL6 5LH"
7297,1,9274,-1.26246039636587,51.8244475274881,0.00443655723158829,0.0239574090505768,"A34, Hampton Gay and Poyle, Hampton Poyle, Cherwell, Oxfordshire, South East England, England, OX5 2PW, United Kingdom","OX5 2PW"
7312,1,9113,-1.47965591533125,50.9453041164815,0.00266193433895297,0.0230700976042591,"M27, Nursling and Rownhams, Nursling, Test Valley, Hampshire, South East England, England, SO16 0XZ, United Kingdom","SO16 0XZ"
7313,1,9112,-1.47988143700043,50.9455029575544,0.00266193433895297,0.0212954747116238,"M27, Nursling and Rownhams, Nursling, Test Valley, Hampshire, South East England, England, SO16 0XZ, United Kingdom","SO16 0XZ"
7315,1,8849,-5.36164524508107,50.2071442323463,0.00709849157054126,0.0257320319432121,"A30, Gwinear-Gwithian, Connor Downs, Cornwall, South West England, England, TR27 5DA, United Kingdom","TR27 5DA"
7316,1,8848,-5.36162809936554,50.2070997471076,0.00709849157054126,0.0257320319432121,"Gwinear-Gwithian, Connor Downs, Cornwall, South West England, England, TR27 5EQ, United Kingdom","TR27 5EQ"
7319,1,8919,-5.21715751801773,50.2501284241612,0.00354924578527063,0.0212954747116238,"A30, Church Farm, St. Agnes, Scorrier, Redruth, Cornwall, South West England, England, TR16 4AT, United Kingdom","TR16 4AT"
7331,1,8860,-4.69956350076785,50.4782429656988,0.00532386867790594,0.0221827861579414,"Caterlink, A30, Turfdown, Bodmin, Cornwall, South West England, England, PL31 2AY, United Kingdom","PL31 2AY"
7333,1,8863,-4.65665749333848,50.5107221599659,0.00798580301685892,0.0266193433895297,"A30, Penhallow, Blisland, Cornwall, South West England, England, PL30 4HJ, United Kingdom","PL30 4HJ"
7338,1,8866,-4.4049185454741,50.6276225294465,0.00354924578527063,0.0239574090505768,"A30, St. Thomas the Apostle Rural, Tregadillet, Cornwall, South West England, England, PL15 7EY, United Kingdom","PL15 7EY"
7350,1,8872,-3.97704136576838,50.7375728593821,0.00443655723158829,0.0230700976042591,"A30, South Tawton, West Devon, Devon, South West England, England, EX6 6RG, United Kingdom","EX6 6RG"
7360,1,8945,-2.47733614138041,50.7121810438966,0.00532386867790594,0.0266193433895297,"A35, Winterborne St. Martin, Martinstown, Dorset, South West England, England, DT2 9DT, United Kingdom","DT2 9DT"
7361,1,8944,-2.47732152118936,50.7121361401933,0.00532386867790594,0.0266193433895297,"A35, Winterborne St. Martin, Martinstown, Dorset, South West England, England, DT2 9DT, United Kingdom","DT2 9DT"
7370,1,8897,-3.95454989236124,50.3850230841803,0.00443655723158829,0.0230700976042591,"Devon Expressway, Ivybridge, South Hams, Devon, South West England, England, PL21 9DG, United Kingdom","PL21 9DG"
7378,1,8894,-3.83226657752904,50.4187101904368,0.0062111801242236,0.0292812777284827,"Devon Expressway, South Brent, South Hams, Devon, South West England, England, TQ10 9DQ, United Kingdom","TQ10 9DQ"
7382,1,8909,-4.40184695612497,50.420296053334,0.00532386867790594,0.0221827861579414,"A38, Menheniot, Cornwall, South West England, England, PL14 3PJ, United Kingdom","PL14 3PJ"
7383,1,8908,-4.43900854561621,50.4349666996079,0.00532386867790594,0.0221827861579414,"Lean Quarry Junction, A38, Menheniot, Cornwall, South West England, England, PL14 3QB, United Kingdom","PL14 3QB"
7385,1,8893,-3.7899459615179,50.4626582291713,0.0062111801242236,0.028393966282165,"Devon Expressway, Upper Dean, Dean Prior, Rattery, South Hams, Devon, South West England, England, TQ11 0LY, United Kingdom","TQ11 0LY"
7386,1,8911,-4.48373033088761,50.4509846623547,0.00354924578527063,0.0212954747116238,"A38, Looe Mills, Liskeard, Cornwall, South West England, England, PL14 4DH, United Kingdom","PL14 4DH"
7387,1,8910,-4.48365060444584,50.4510763133689,0.00354924578527063,0.0212954747116238,"A38, Looe Mills, Liskeard, Cornwall, South West England, England, PL14 4DH, United Kingdom","PL14 4DH"
7396,1,8887,-3.56087483995169,50.6427989127743,0.00443655723158829,0.0239574090505768,"Haldon Hill, Kenn, Teignbridge, Devon, South West England, England, EX6 7XS, United Kingdom","EX6 7XS"
7397,1,8886,-3.56188833048197,50.6413733561318,0.00354924578527063,0.0230700976042591,"Costa, Devon Expressway, Harcombe, Kenn, Chudleigh, Teignbridge, Devon, South West England, England, TQ13 0, United Kingdom","TQ13 0"
7400,1,8881,-3.51832440624377,50.6794429912113,0.0115350488021295,0.0292812777284827,"M5, Exminster, Kennford, Teignbridge, Devon, South West England, England, EX2 8XL, United Kingdom","EX2 8XL"
7401,1,8880,-3.51848497716117,50.6795937893964,0.0115350488021295,0.0292812777284827,"Devon Expressway, Exminster, Kennford, Teignbridge, Devon, South West England, England, EX2 8XL, United Kingdom","EX2 8XL"
7407,1,8924,-3.46257217368172,50.7300337246926,0.00354924578527063,0.0204081632653061,"M5, Monkerton, Exeter, Devon, South West England, England, EX1 3FS, United Kingdom","EX1 3FS"
7408,1,8923,-3.4630481531697,50.7298478839754,0.00354924578527063,0.0204081632653061,"M5, Monkerton, Exeter, Devon, South West England, England, EX1 3FS, United Kingdom","EX1 3FS"
7419,1,9025,-2.86137420423625,50.9336888468863,0.00443655723158829,0.0212954747116238,"A303, Hurcott, Seavington St Mary, South Somerset, Somerset, South West England, England, TA19 0QU, United Kingdom","TA19 0QU"
7420,1,9024,-2.86137320585322,50.9336348986919,0.00443655723158829,0.0212954747116238,"A303, Hurcott, Seavington St Mary, South Somerset, Somerset, South West England, England, TA19 0QU, United Kingdom","TA19 0QU"
7421,1,9026,-2.75328085635891,50.9612881262866,0.0124223602484472,0.028393966282165,"A303, Stoke sub Hamdon, South Somerset, Somerset, South West England, England, TA14 6RA, United Kingdom","TA14 6RA"
7423,1,9028,-2.71581653027577,50.9825393043393,0.0124223602484472,0.0266193433895297,"Jolly Diner, A303, Tintinhull, Ash, South Somerset, Somerset, South West England, England, BA22 8PF, United Kingdom","BA22 8PF"
7424,1,9029,-2.69800654449704,50.9927817387366,0.00443655723158829,0.0221827861579414,"A303, Tintinhull, Ash, South Somerset, Somerset, South West England, England, BA22 8PA, United Kingdom","BA22 8PA"
7425,1,9030,-2.68787427240198,51.0099816789772,0.00798580301685892,0.0275066548358474,"A303, Ilchester, Podimore, South Somerset, Somerset, South West England, England, BA22 8JL, United Kingdom","BA22 8JL"
7427,1,9033,-2.60065516293368,51.026542033766,0.00443655723158829,0.0239574090505768,"Sparkford Road, Wales, Queen Camel, West Camel, South Somerset, Somerset, South West England, England, BA22 7PH, United Kingdom","BA22 7PH"
7428,1,9032,-2.60064032213538,51.026497148057,0.00443655723158829,0.0239574090505768,"Sparkford Road, Wales, Queen Camel, West Camel, South Somerset, Somerset, South West England, England, BA22 7PH, United Kingdom","BA22 7PH"
7437,1,9011,-1.9564288422567,51.7353188263113,0.00354924578527063,0.0275066548358474,"A417, Baunton, Cotswold, Gloucestershire, South West England, England, GL7 1GN, United Kingdom","GL7 1GN"
7446,1,9016,-1.76561304689391,51.5973802499327,0.00354924578527063,0.0221827861579414,"A419, Kingsdown, Stratton St. Margaret, Stratton St Margaret, Swindon, South West England, England, SN2 7TG, United Kingdom","SN2 7TG"
7457,1,8963,-2.99593741695036,51.100365706494,0.00532386867790594,0.0248447204968944,"M5, North Petherton, Huntworth, Sedgemoor, Somerset, South West England, England, TA6 6FA, United Kingdom","TA6 6FA"
7458,1,8962,-2.99615373805109,51.1004627818735,0.00443655723158829,0.0221827861579414,"M5, North Petherton, Huntworth, Sedgemoor, Somerset, South West England, England, TA6 6FA, United Kingdom","TA6 6FA"
7459,1,8965,-2.9918957224656,51.1037092094392,0.00443655723158829,0.0275066548358474,"M5, North Petherton, Huntworth, Sedgemoor, Somerset, South West England, England, TA6 6TS, United Kingdom","TA6 6TS"
7469,1,8973,-2.89416648877915,51.3569731505059,0.00443655723158829,0.0248447204968944,"M5, Way Wick, Woolvers Hill, Banwell, North Somerset, South West England, England, BS24 8PQ, United Kingdom","BS24 8PQ"
7470,1,8972,-2.89441164842799,51.3570252262842,0.00443655723158829,0.0266193433895297,"M5, Way Wick, Woolvers Hill, Banwell, North Somerset, South West England, England, BS24 8PQ, United Kingdom","BS24 8PQ"
7472,1,8974,-2.89109351055218,51.3643970916907,0.00354924578527063,0.0266193433895297,"M5, Way Wick, Banwell, North Somerset, South West England, England, BS22 7SN, United Kingdom","BS22 7SN"
7473,1,8977,-2.84126489543824,51.4294084132567,0.00266193433895297,0.0204081632653061,"Kenn Moor Fields Playground, M5, East Clevedon, Clevedon, North Somerset, South West England, England, BS21 5DW, United Kingdom","BS21 5DW"
7474,1,8976,-2.84156891029511,51.4295141331634,0.00443655723158829,0.0275066548358474,"Kenn Moor Fields Playground, M5, East Clevedon, Clevedon, North Somerset, South West England, England, BS21 5DW, United Kingdom","BS21 5DW"
7487,1,8995,-2.45330964208793,51.6359584184204,0.00709849157054126,0.0275066548358474,"M5, Tortworth, Cromhall, South Gloucestershire, West of England, England, GL12 8PS, United Kingdom","GL12 8PS"
7488,1,8994,-2.45368684319255,51.636109818137,0.00709849157054126,0.0275066548358474,"M5, Tortworth, Cromhall, South Gloucestershire, West of England, England, GL12 8PS, United Kingdom","GL12 8PS"
7490,1,8996,-2.45056487027033,51.6374795657556,0.00266193433895297,0.0212954747116238,"M5, Tortworth, Cromhall, South Gloucestershire, West of England, England, GL12 8PS, United Kingdom","GL12 8PS"
7493,1,9001,-2.32101353107075,51.7608808846168,0.0115350488021295,0.0275066548358474,"M5, Brookthorpe-with-Whaddon, Brookthorpe, Stroud, Gloucestershire, South West England, England, GL2 7AG, United Kingdom","GL2 7AG"
7494,1,9000,-2.32059251717568,51.7607651472836,0.0115350488021295,0.0275066548358474,"M5, Brookthorpe-with-Whaddon, Brookthorpe, Stroud, Gloucestershire, South West England, England, GL2 7AG, United Kingdom","GL2 7AG"
7498,1,9004,-2.1673495457849,51.8613347917699,0.0062111801242236,0.028393966282165,"M5, Brockworth, Tewkesbury, Gloucestershire, South West England, England, GL3, United Kingdom","England, GL3"
7520,1,9049,-0.999030382560896,50.9086677187305,0.0062111801242236,0.0266193433895297,"Waterlooville Bypass, Blendworth, Horndean, East Hampshire, Hampshire, South East England, England, PO8 0BW, United Kingdom","PO8 0BW"
7521,1,9048,-0.99873233012587,50.9086381885219,0.00709849157054126,0.0275066548358474,"Waterlooville Bypass, Blendworth, Horndean, East Hampshire, Hampshire, South East England, England, PO8 0BW, United Kingdom","PO8 0BW"
7526,1,9055,-0.953407546053502,51.0060290525757,0.00443655723158829,0.0248447204968944,"Liphook and Petersfield Bypass, Petersfield, Buriton, East Hampshire, Hampshire, South East England, England, GU32 3QF, United Kingdom","GU32 3QF"
7527,1,9054,-0.953621706767941,51.0060129842822,0.00443655723158829,0.0248447204968944,"Liphook and Petersfield Bypass, Petersfield, Buriton, East Hampshire, Hampshire, South East England, England, GU32 3QF, United Kingdom","GU32 3QF"
7534,1,9062,-0.902647134266297,51.0454820162444,0.00532386867790594,0.0230700976042591,"Liphook and Petersfield Bypass, Old Berry Grove Farm, Liss, West Liss, East Hampshire, Hampshire, South East England, England, GU33 6JN, United Kingdom","GU33 6JN"
7537,1,9268,-0.89586060223289,51.0609393881078,0.00354924578527063,0.0204081632653061,"Liphook and Petersfield Bypass, Whitehill, Bramshott, East Hampshire, Hampshire, South East England, England, GU30 7YA, United Kingdom","GU30 7YA"
7538,1,9269,-0.835328105009126,51.079622949867,0.00443655723158829,0.0221827861579414,"Liphook and Petersfield Bypass, Whitehill, Bramshott, East Hampshire, Hampshire, South East England, England, GU30 7YA, United Kingdom","GU30 7YA"
7543,1,9073,-0.651069923140518,51.1815706825035,0.00354924578527063,0.0212954747116238,"Milford By-Pass, Witley, Milford, Waverley, Surrey, South East England, England, GU8 6BB, United Kingdom","GU8 6BB"
7544,1,9072,-0.650798692150334,51.1815495687062,0.00354924578527063,0.0212954747116238,"Guildford Road, Eashing, Shackleford, Guildford, Surrey, South East England, England, GU8 6BB, United Kingdom","GU8 6BB"
7556,1,9089,-0.518102535704873,51.2771539531588,0.00532386867790594,0.0257320319432121,"Ripley By-Pass, West Clandon, Send, Guildford, Surrey, South East England, England, GU23 7LN, United Kingdom","GU23 7LN"
7569,1,9165,-1.27717966635855,51.1837682073814,0.00354924578527063,0.0204081632653061,"A303, Micheldever, Micheldever Station, Winchester, Hampshire, South East England, England, SO21 3AZ, United Kingdom","SO21 3AZ"
7570,1,9159,-1.3732712098847,51.1805534056008,0.00354924578527063,0.0221827861579414,"Barton Stacey Turn, A303, Barton Stacey, Bransbury, Test Valley, Hampshire, South East England, England, SO21 3NF, United Kingdom","SO21 3NF"
7581,1,9100,-1.83637006604499,50.8297330029206,0.00354924578527063,0.0212954747116238,"Ringwood Road, St. Leonards and St. Ives, St Leonards, Dorset, South West England, England, BH24 2NS, United Kingdom","BH24 2NS"
7682,1,9360,0.14804519845385,51.282107201822,0.00443655723158829,0.0292812777284827,"Sevenoaks Bypass, Chipstead, Chevening, Sundridge, Sevenoaks, Kent, South East England, England, TN13 2HZ, United Kingdom","TN13 2HZ"
7683,1,9359,0.148266409925,51.2822380417112,0.00443655723158829,0.0292812777284827,"Sevenoaks Bypass, Chipstead, Chevening, Sundridge, Sevenoaks, Kent, South East England, England, TN13 2HZ, United Kingdom","TN13 2HZ"
7695,1,9392,-0.19378019699155,50.9697414778083,0.00443655723158829,0.0212954747116238,"A23, Twineham, Hickstead, Mid Sussex, West Sussex, South East England, England, RH17 5NT, United Kingdom","RH17 5NT"
7716,1,9327,0.033113328452182,50.8188581231718,0.00354924578527063,0.0204081632653061,"A26, Durham Farm, Tarring Neville, South Heighton, Lewes, East Sussex, South East England, England, BN9 0JE, United Kingdom","BN9 0JE"
7717,1,9328,0.033185041344417,50.8188748609652,0.00354924578527063,0.0204081632653061,"A26, Durham Farm, Tarring Neville, South Heighton, Lewes, East Sussex, South East England, England, BN9 0JE, United Kingdom","BN9 0JE"
7723,1,9307,-0.344935575049772,50.8375130054116,0.00798580301685892,0.0257320319432121,"Upper Brighton Road, Broadwater, Worthing, West Sussex, South East England, England, BN15 0DT, United Kingdom","BN15 0DT"
7731,1,9308,-0.279796163469807,50.8457892272252,0.00798580301685892,0.0275066548358474,"Shoreham Bypass, Shoreham-by-Sea, Adur, West Sussex, South East England, England, BN43 6HY, United Kingdom","BN43 6HY"
7737,1,9296,-0.647834842039618,50.8565582639704,0.00266193433895297,0.0230700976042591,"Arundel Road, Slindon, Fontwell, Arun, West Sussex, South East England, England, BN18 0SH, United Kingdom","BN18 0SH"
7747,1,9312,-0.159817004842665,50.8674952451001,0.00443655723158829,0.0230700976042591,"Westdene, Patcham, Brighton and Hove, South East England, England, BN1 8ZD, United Kingdom","BN1 8ZD"
7753,1,9351,0.580952527614028,51.3354374484061,0.00354924578527063,0.0221827861579414,"M2, Parkwood, Gillingham, Medway, South East England, England, ME7 3LQ, United Kingdom","ME7 3LQ"
7754,1,9350,0.580901731108921,51.335555489095,0.00354924578527063,0.0221827861579414,"Maidstone Road, Parkwood, Gillingham, Medway, South East England, England, ME7 3LQ, United Kingdom","ME7 3LQ"
7758,1,9403,-0.143321045901921,51.1045407155693,0.00532386867790594,0.028393966282165,"M23, Worth, Maidenbower, Crawley, West Sussex, South East England, England, RH10 7LR, United Kingdom","RH10 7LR"
7777,1,9468,0.266851824383478,51.4896885609628,0.00266193433895297,0.0221827861579414,"Mar Dyke, A282, West Thurrock, South Ockendon, Thurrock, East of England, England, RM19 1YN, United Kingdom","RM19 1YN"
7800,1,9440,-0.452206374871853,51.320248999859,0.00443655723158829,0.0239574090505768,"Portsmouth Road, Ockham, Guildford, Surrey, South East England, England, KT11 1NA, United Kingdom","KT11 1NA"
7813,1,9784,-0.333880037476517,52.5473706645715,0.00354924578527063,0.0230700976042591,"Great North Road, Alwalton, Huntingdonshire, Cambridgeshire, Chesterton, Cambridgeshire and Peterborough, England, PE7 3UF, United Kingdom","PE7 3UF"
7826,1,9795,-0.717177832531178,52.3726353126754,0.00709849157054126,0.0239574090505768,"A14, Kettering, North Northamptonshire, East Midlands, England, NN15 6XT, United Kingdom","NN15 6XT"
7828,1,9797,-0.746923376943813,52.388751050833,0.00354924578527063,0.0204081632653061,"A14, Pytchley, Kettering, North Northamptonshire, East Midlands, England, NN14 1RW, United Kingdom","NN14 1RW"
7830,1,9790,-0.525557935943572,52.3910354611976,0.00532386867790594,0.0266193433895297,"Thrapston Services, A14, Thrapston, North Northamptonshire, East Midlands, England, NN14 4RX, United Kingdom","NN14 4RX"
7831,1,9804,-1.02911225535371,52.3969897480217,0.00266193433895297,0.0204081632653061,"A14, Cold Ashby, West Northamptonshire, East Midlands, England, NN6 6JE, United Kingdom","NN6 6JE"
7837,1,9799,-0.752240471492306,52.4050172594746,0.00354924578527063,0.0239574090505768,"A14, Thorpe Malsor, North Northamptonshire, East Midlands, England, NN16 8WH, United Kingdom","NN16 8WH"
7838,1,9798,-0.75250752825268,52.404930168849,0.00354924578527063,0.0239574090505768,"A14, Thorpe Malsor, North Northamptonshire, East Midlands, England, NN16 8WH, United Kingdom","NN16 8WH"
7843,1,9808,-0.402701533006774,52.1425204499722,0.00443655723158829,0.0204081632653061,"Bedford Southern Bypass, Cople, Bedford, East of England, England, MK44 3PG, United Kingdom","MK44 3PG"
7848,1,9817,-0.225083242855549,52.2251313250425,0.00354924578527063,0.0204081632653061,"A428, Abbotsley, Huntingdonshire, Cambridgeshire, Cambridgeshire and Peterborough, England, PE19 6SR, United Kingdom","PE19 6SR"
7849,1,9816,-0.225070401273625,52.2250861740162,0.00887311446317657,0.0292812777284827,"A428, Abbotsley, Huntingdonshire, Cambridgeshire, Cambridgeshire and Peterborough, England, PE19 6SR, United Kingdom","PE19 6SR"
7865,1,9834,-0.846478890105326,52.0620379532971,0.00354924578527063,0.0221827861579414,"A5, Galley Hill, Stony Stratford, Milton Keynes, South East England, England, MK11 1DE, United Kingdom","MK11 1DE"
7870,1,9847,-1.15755385958843,52.351125920615,0.00443655723158829,0.0230700976042591,"Crick Road, Crick, West Northamptonshire, East Midlands, England, NN6 7EX, United Kingdom","NN6 7EX"
7871,1,9846,-1.16401393825142,52.353455375457,0.00354924578527063,0.0221827861579414,"A5, Kilsby, Crick, West Northamptonshire, East Midlands, England, NN6 7BZ, United Kingdom","NN6 7BZ"
7873,1,9871,-2.67606030089611,51.8471290261285,0.00443655723158829,0.0257320319432121,"A40, Crocker's Ash, Ganarew, Herefordshire, England, HR9 6DL, United Kingdom","HR9 6DL"
7875,1,9868,-2.62127427204138,51.9073218661806,0.0062111801242236,0.0292812777284827,"A40, Wilton, Bridstow, Herefordshire, England, HR9 6AL, United Kingdom","HR9 6AL"
7877,1,9867,-2.58944487689623,51.9210531450604,0.00266193433895297,0.0204081632653061,"A40, Ross-on-Wye, Herefordshire, England, HR9 7XX, United Kingdom","HR9 7XX"
7886,1,9502,-0.315458963901858,51.3745568362745,0.0124223602484472,0.0275066548358474,"Esher Bypass, Claygate, Elmbridge, Surrey, South East England, England, KT9 1UE, United Kingdom","KT9 1UE"
7887,1,9494,-0.372523098957399,51.7138545680542,0.0062111801242236,0.0257320319432121,"North Orbital Road, Waterdale, St Stephen, St Albans, Hertfordshire, East of England, England, AL2 3ET, United Kingdom","AL2 3ET"
7920,1,9621,0.267186041375163,52.1656430445391,0.00443655723158829,0.0221827861579414,"A11, Balsham, South Cambridgeshire, Cambridgeshire, East of England, England, CB21 4HQ, United Kingdom","CB21 4HQ"
7922,1,9632,0.473565865442377,52.2926609759471,0.00266193433895297,0.0221827861579414,"A11, Chippenham, East Cambridgeshire, Cambridgeshire, East of England, England, CB8 7RQ, United Kingdom","CB8 7RQ"
7942,1,9524,0.427949559093137,51.695468280951,0.00443655723158829,0.0292812777284827,"Chelmsford Bypass, Margaretting, Chelmsford, Essex, East of England, England, CM4, United Kingdom","England, CM4"
8019,1,9599,1.08149780232957,52.1442317024124,0.00354924578527063,0.0204081632653061,"A14, Coddenham, Needham Market, Mid Suffolk, Suffolk, East of England, England, IP6 8LH, United Kingdom","IP6 8LH"
8020,1,9598,1.08128855182446,52.1441652231337,0.00354924578527063,0.0212954747116238,"A14, Coddenham, Needham Market, Mid Suffolk, Suffolk, East of England, England, IP6 8LH, United Kingdom","IP6 8LH"
8025,1,9628,0.213041258481643,52.2143117400452,0.00532386867790594,0.0266193433895297,"A14, Fen Ditton, South Cambridgeshire, Cambridgeshire, Cambridgeshire and Peterborough, England, CB25 9AG, United Kingdom","CB25 9AG"
8053,1,9678,-0.282519095531066,52.580434152253,0.00354924578527063,0.0230700976042591,"Soke Parkway, South Bretton, Ravensthorpe, Peterborough, City of Peterborough, Cambridgeshire and Peterborough, England, PE3 9PF, United Kingdom","PE3 9PF"
8062,1,9672,0.12034267356753,52.6367632583911,0.00443655723158829,0.0275066548358474,"Cromwell Road, Wisbech, Fenland, Cambridgeshire, Cambridgeshire and Peterborough, England, PE14 0RS, United Kingdom","PE14 0RS"
8063,1,9671,0.120385236183378,52.6367265298011,0.00443655723158829,0.0266193433895297,"Cromwell Road, Wisbech, Fenland, Cambridgeshire, Cambridgeshire and Peterborough, England, PE14 0RS, United Kingdom","PE14 0RS"
8068,1,9658,1.19508750934338,52.6382586570211,0.00266193433895297,0.0212954747116238,"Norwich Southern Bypass, The Hampdens, Costessey, South Norfolk, Norfolk, East of England, England, NR5 0WG, United Kingdom","NR5 0WG"
8072,1,9669,0.201291466085633,52.673896882987,0.00354924578527063,0.0230700976042591,"Wisbech Bypass, Walsoken, Walton Highway, King's Lynn and West Norfolk, Norfolk, East of England, England, PE14 7BF, United Kingdom","PE14 7BF"
8073,1,9670,0.201349224881757,52.6738688353145,0.00354924578527063,0.0230700976042591,"Wisbech Bypass, Walsoken, Walton Highway, King's Lynn and West Norfolk, Norfolk, East of England, England, PE14 7BF, United Kingdom","PE14 7BF"
8075,1,9647,1.49966470968291,52.6351062059991,0.00532386867790594,0.0275066548358474,"A47, Lingwood and Burlingham, North Burlingham, Broadland, Norfolk, East of England, England, NR13 4TA, United Kingdom","NR13 4TA"
8076,1,9662,0.802144564674034,52.6688731960738,0.00266193433895297,0.0221827861579414,"Main Road, Fransham, Little Fransham, Breckland, Norfolk, East of England, England, NR19 2RQ, United Kingdom","NR19 2RQ"
8077,1,9661,0.80218657633132,52.6688362315957,0.00266193433895297,0.0221827861579414,"Main Road, Fransham, Little Fransham, Breckland, Norfolk, East of England, England, NR19 2RQ, United Kingdom","NR19 2RQ"
8103,1,9710,-0.568615394581517,52.6954052326412,0.00443655723158829,0.0239574090505768,"Great North Road, Tickencote, Rutland, East Midlands, England, PE9 4AQ, United Kingdom","PE9 4AQ"
8104,1,9711,-0.611433368226726,52.7730333665486,0.00443655723158829,0.0221827861579414,"Great North Road, South Witham, North Witham, South Kesteven, Lincolnshire, East Midlands, England, NG33 5LN, United Kingdom","NG33 5LN"
8105,1,9712,-0.618624994169186,52.8123149353638,0.00354924578527063,0.0221827861579414,"Great North Road, Twyford, Colsterworth, Woolsthorpe, South Kesteven, Lincolnshire, East Midlands, England, NG33 5PF, United Kingdom","NG33 5PF"
8109,1,9715,-0.662770178180571,52.8968698453071,0.00443655723158829,0.0221827861579414,"A1, Grantham, Lincolnshire, East Midlands, England, NG31 7JU, United Kingdom","NG31 7JU"
8116,1,9723,-0.684642225777204,52.9414167553511,0.00443655723158829,0.0275066548358474,"A1, Great Gonerby, South Kesteven, Lincolnshire, East Midlands, England, NG32 2BP, United Kingdom","NG32 2BP"
8120,1,9728,-0.777165548220247,53.0477630710788,0.00443655723158829,0.028393966282165,"A1, Airfield Cottages, Fernwood CP, Newark and Sherwood, Nottinghamshire, East Midlands, England, NG24 3QA, United Kingdom","NG24 3QA"
8121,1,9727,-0.776927442431144,53.0477426438658,0.00443655723158829,0.028393966282165,"A1, Airfield Cottages, Fernwood CP, Newark and Sherwood, Nottinghamshire, East Midlands, England, NG24 3QA, United Kingdom","NG24 3QA"
8127,1,9733,-0.816428872791029,53.1169482020802,0.00354924578527063,0.0221827861579414,"A1, Northroad Farm, North Muskham CP, Newark and Sherwood, Nottinghamshire, East Midlands, England, NG23 6HJ, United Kingdom","NG23 6HJ"
8134,1,9742,-0.99211050295502,53.2830045606857,0.00532386867790594,0.0248447204968944,"Worksop Road, Elkesley, Bassetlaw, Nottinghamshire, East Midlands, England, DN22 8HQ, United Kingdom","DN22 8HQ"
8135,1,9741,-1.00731855706209,53.2875995832959,0.0124223602484472,0.028393966282165,"Worksop Road, Elkesley, Bassetlaw, Nottinghamshire, East Midlands, England, DN22 8BW, United Kingdom","DN22 8BW"
8136,1,9743,-1.03039700676278,53.3065315254626,0.0062111801242236,0.0204081632653061,"Blyth Road, Worksop, Ranby, Bassetlaw, Nottinghamshire, East Midlands, England, DN22 8HN, United Kingdom","DN22 8HN"
8141,1,9748,-1.05400045224619,53.3793611107628,0.00266193433895297,0.0212954747116238,"A1, Blyth, Bassetlaw, Nottinghamshire, East Midlands, England, S81 8EY, United Kingdom","S81 8EY"
8148,1,9753,-1.06148058053673,52.7502791431363,0.00443655723158829,0.0212954747116238,"A46, Thrussington, Seagrave, Charnwood, Leicestershire, East Midlands, England, LE7 4TF, United Kingdom","LE7 4TF"
8153,1,9758,-0.968987447195103,52.9584881526643,0.00266193433895297,0.0221827861579414,"A46, Flintham, Newton, Rushcliffe, Nottinghamshire, East Midlands, England, NG23 5LJ, United Kingdom","NG23 5LJ"
8157,1,9781,-0.407857130058527,52.5844955262948,0.00354924578527063,0.0221827861579414,"A47, Wansford, City of Peterborough, Cambridgeshire and Peterborough, England, PE8 6LB, United Kingdom","PE8 6LB"
8158,1,9780,-0.407874162157131,52.5844328193545,0.00354924578527063,0.0230700976042591,"A47, Wansford, City of Peterborough, Cambridgeshire and Peterborough, England, PE8 6LB, United Kingdom","PE8 6LB"
8173,1,9825,-0.282418217578065,52.1089186759919,0.00354924578527063,0.0204081632653061,"Great North Road, Seddington, Beeston, Sandy, Central Bedfordshire, East of England, England, SG19 1NU, United Kingdom","SG19 1NU"
8186,1,9857,-1.92315561207131,52.1005424865619,0.00443655723158829,0.0221827861579414,"A46, Aldington, Wychavon, Worcestershire, England, WR11 8UB, United Kingdom","WR11 8UB"
8191,1,9875,-2.70775491030131,51.9611393465238,0.00532386867790594,0.0204081632653061,"A49, Llandinabo, Llanwarne, Herefordshire, England, HR2 8JA, United Kingdom","HR2 8JA"
8192,1,9874,-2.70782753154911,51.9611299185897,0.00532386867790594,0.0204081632653061,"A49, Llandinabo, Llanwarne, Herefordshire, England, HR2 8JA, United Kingdom","HR2 8JA"
8213,1,9864,-2.54257654417727,51.9292536923821,0.00177462289263532,0.0212954747116238,"M50, Phocle Green, Crow Hill, Upton Bishop, Herefordshire, England, HR9 7TN, United Kingdom","HR9 7TN"
8220,1,10115,-2.78931008256833,52.6839600900887,0.00532386867790594,0.0212954747116238,"A5, Red Hill, Hook-a-Gate, Longden, Shropshire, England, SY5 8NX, United Kingdom","SY5 8NX"
8222,1,10118,-2.73060529863599,52.6862957566626,0.00532386867790594,0.0204081632653061,"A5, Sutton Farm, Shrewsbury, Shropshire, England, SY2 6JH, United Kingdom","SY2 6JH"
8223,1,10117,-2.74005142255736,52.68586849871,0.00443655723158829,0.0221827861579414,"Pets Corner, A5, Shrewsbury, Shropshire, England, SY2 6JH, United Kingdom","SY2 6JH"
8224,1,10120,-2.70381700716526,52.7030444540627,0.00532386867790594,0.0275066548358474,"A5, Preston, Upton Magna, Shropshire, England, SY4 4TB, United Kingdom","SY4 4TB"
8230,1,10105,-3.04281204362191,52.9068190103532,0.00266193433895297,0.0204081632653061,"A5, Selattyn and Gobowen, Gobowen, Shropshire, England, SY11 3NU, United Kingdom","SY11 3NU"
8231,1,10106,-3.04273771418086,52.9068196631287,0.00266193433895297,0.0204081632653061,"A5, Selattyn and Gobowen, Gobowen, Shropshire, England, SY11 3NU, United Kingdom","SY11 3NU"
8233,1,10121,-2.94355125734698,53.1589411249362,0.00532386867790594,0.0230700976042591,"North Wales Expressway, Dodleston, Chester, Cheshire West and Chester, North West England, England, CH4 9LG, United Kingdom","CH4 9LG"
8240,1,10095,-2.88458438119561,53.2776642539267,0.00266193433895297,0.0212954747116238,"M53, Wolverham, Ellesmere Port, Cheshire West and Chester, North West England, England, CH65 5FH, United Kingdom","CH65 5FH"
8250,1,10087,-2.86381611624626,53.2495547412922,0.00354924578527063,0.0230700976042591,"M56, Stoak, Cheshire West and Chester, North West England, England, CH2 4HL, United Kingdom","CH2 4HL"
8251,1,10086,-2.86373540693452,53.2492676744561,0.00354924578527063,0.0230700976042591,"M56, Stoak, Cheshire West and Chester, North West England, England, CH2 4HL, United Kingdom","CH2 4HL"
8252,1,10090,-2.92940372727331,53.2441354930671,0.00532386867790594,0.0212954747116238,"M56, Dunkirk, Lea-by-Backford, Cheshire West and Chester, North West England, England, CH1 6LR, United Kingdom","CH1 6LR"
8256,1,10083,-2.80025857807201,53.2674368968871,0.00354924578527063,0.0212954747116238,"RoadChef Chester Services, M56, Thornton Green, Elton, Cheshire West and Chester, North West England, England, CH2 4JN, United Kingdom","CH2 4JN"
8257,1,10082,-2.80007649275081,53.2673212605651,0.00354924578527063,0.0212954747116238,"RoadChef Chester Services, M56, Thornton Green, Elton, Cheshire West and Chester, North West England, England, CH2 4JN, United Kingdom","CH2 4JN"
8269,1,10125,-2.56754062393097,53.3350742559371,0.00887311446317657,0.0275066548358474,"M56, Appleton, Hatton, Stretton, Warrington, North West England, England, WA4 4DQ, United Kingdom","WA4 4DQ"
8270,1,10070,-2.5131820138261,53.3503318833773,0.00443655723158829,0.0204081632653061,"M56, Appleton, High Legh, Warrington, North West England, England, WA4 4RF, United Kingdom","WA4 4RF"
8281,1,10162,-1.6100478435741,52.8384784207526,0.00443655723158829,0.0204081632653061,"A38, Stretton, East Staffordshire, Staffordshire, England, DE13 0DG, United Kingdom","DE13 0DG"
8284,1,10252,-1.4883151558317,52.7259428379789,0.0062111801242236,0.0248447204968944,"A42, Ashby-de-la-Zouch, Willesley, North West Leicestershire, Leicestershire, East Midlands, England, LE65 2UN, United Kingdom","LE65 2UN"
8285,1,10206,-1.4470149253116,52.7494637166323,0.00443655723158829,0.0204081632653061,"A42, Ashby-de-la-Zouch, Lount, North West Leicestershire, Leicestershire, East Midlands, England, LE65 1JR, United Kingdom","LE65 1JR"
8291,1,10227,-1.32809399372292,52.3425897159809,0.0062111801242236,0.0230700976042591,"Coventry Road, Thurlaston CP, Rugby, Warwickshire, England, CV23 9LE, United Kingdom","CV23 9LE"
8299,1,10257,-1.85518637670426,52.2082490409673,0.00532386867790594,0.0204081632653061,"A46, Oversley Green, Alcester, Upton, Stratford-on-Avon, Warwickshire, England, B49 6LR, United Kingdom","B49 6LR"
8300,1,10258,-1.85517188832129,52.2082040707296,0.00532386867790594,0.0204081632653061,"A46, Oversley Green, Alcester, Upton, Stratford-on-Avon, Warwickshire, England, B49 6LR, United Kingdom","B49 6LR"
8303,1,10254,-1.6383628388826,52.2499504960658,0.0124223602484472,0.0257320319432121,"Warwick Road, Fulbrook CP, Stratford-on-Avon, Warwickshire, England, CV35 8AG, United Kingdom","CV35 8AG"
8328,1,10216,-1.39087588097179,52.5262042657059,0.00266193433895297,0.0239574090505768,"Watling Street, Burbage, Hinckley, Hinckley and Bosworth, Leicestershire, East Midlands, England, LE10 3EL, United Kingdom","LE10 3EL"
8329,1,10215,-1.39092059391509,52.5261685352929,0.00266193433895297,0.0257320319432121,"Watling Street, Burbage, Hinckley, Hinckley and Bosworth, Leicestershire, East Midlands, England, LE10 3EL, United Kingdom","LE10 3EL"
8343,1,10646,-1.51834032672136,54.7327294960817,0.00266193433895297,0.0221827861579414,"A1(M), Cornforth Moor Farm, Cassop-cum-Quarrington, Parkhill, County Durham, North East, England, DH6 4JQ, United Kingdom","DH6 4JQ"
8344,1,10645,-1.51806113718371,54.7327014278779,0.00266193433895297,0.0221827861579414,"A1(M), Cornforth Moor Farm, Cassop-cum-Quarrington, Parkhill, County Durham, North East, England, DH6 4JQ, United Kingdom","DH6 4JQ"
8365,1,10698,-1.13657236512372,54.5751768549971,0.00443655723158829,0.0204081632653061,"Greystone Road, Eston, Lackenby, Redcar and Cleveland, Tees Valley, England, TS6 8DN, United Kingdom","TS6 8DN"
8372,1,10710,-1.33583876640237,54.2447516914871,0.00532386867790594,0.0275066548358474,"A19, South Kilvington, Sowerby, Hambleton, North Yorkshire, Yorkshire and the Humber, England, YO7 1SJ, United Kingdom","YO7 1SJ"
8398,1,10728,-1.30034390005691,54.6441827894577,0.00976042590949423,0.028393966282165,"A19, Wynyard, Elwick, Hartlepool, Tees Valley, England, TS22 5PB, United Kingdom","TS22 5PB"
8399,1,10729,-1.30100633733483,54.6471162774851,0.00354924578527063,0.0221827861579414,"A19, Elwick, Hartlepool, Tees Valley, England, TS22 5PB, United Kingdom","TS22 5PB"
8409,1,10203,-1.68854357195566,52.6226352369624,0.00443655723158829,0.0212954747116238,"A5, Kettlebrook, Tamworth, Staffordshire, England, B77 1DF, United Kingdom","B77 1DF"
8417,1,10201,-1.85664772592937,52.9087258363269,0.00709849157054126,0.0257320319432121,"A50, The Wharf, Uttoxeter, East Staffordshire, Staffordshire, England, ST14 5AU, United Kingdom","ST14 5AU"
8419,1,10195,-2.08824754422464,52.9735024814173,0.00266193433895297,0.0257320319432121,"A50, Meir, Longton, Stoke-on-Trent, England, ST3 6HJ, United Kingdom","ST3 6HJ"
8420,1,10194,-2.08809886907999,52.9736194490748,0.00177462289263532,0.0248447204968944,"Catchems Corner, 1161, Uttoxeter Road, Fulford, Stafford, Stoke-on-Trent, Staffordshire, England, ST3 6HH, United Kingdom","ST3 6HH"
8427,1,10186,-2.16516755084391,52.9905977317014,0.0062111801242236,0.0248447204968944,"A50, Blurton, Fenton, Stoke-on-Trent, England, ST4 3BG, United Kingdom","ST4 3BG"
8428,1,10184,-2.16516843991729,52.990831450502,0.0062111801242236,0.0266193433895297,"Heron Cross Link Road, Blurton, Fenton, Stoke-on-Trent, England, ST4 3BG, United Kingdom","ST4 3BG"
8451,1,10137,-2.42505154081408,52.6808821638046,0.00354924578527063,0.0230700976042591,"M54, Priorslee, St. Georges and Priorslee, Priorslee Village, Telford and Wrekin, England, TF2 9YU, United Kingdom","TF2 9YU"
8455,1,10304,-0.726539892013483,53.1315910213568,0.00354924578527063,0.0204081632653061,"A46, South Potter Hill Farm, Collingham CP, Newark and Sherwood, Nottinghamshire, East Midlands, England, NG23 7QA, United Kingdom","NG23 7QA"
8462,1,10327,-1.56451368954989,52.868632703198,0.0062111801242236,0.0275066548358474,"Burton Road, Burnaston CP, Findern, South Derbyshire, Derbyshire, East Midlands, England, DE65 6DX, United Kingdom","DE65 6DX"
8463,1,10326,-1.56427736024487,52.8684969935422,0.0062111801242236,0.0275066548358474,"Burton Road, Burnaston CP, Findern, South Derbyshire, Derbyshire, East Midlands, England, DE65 6DX, United Kingdom","DE65 6DX"
8468,1,10341,-1.50962662251779,52.9262746683369,0.00354924578527063,0.0212954747116238,"A38, New Zealand, Mackworth Estate, Derby, East Midlands, England, DE22 4AB, United Kingdom","DE22 4AB"
8472,1,10347,-1.47709127796309,52.951252893416,0.0062111801242236,0.0257320319432121,"Abbey Hill, Darley Abbey, Derby, East Midlands, England, DE22 2UL, United Kingdom","DE22 2UL"
8473,1,10348,-1.41527719151736,53.0596009834004,0.00354924578527063,0.0266193433895297,"A38, Butterley, Ripley, Amber Valley, Derbyshire, East Midlands, England, DE5 3US, United Kingdom","DE5 3US"
8486,1,10316,-1.3288414911457,52.8610457143671,0.00443655723158829,0.0230700976042591,"A50, Lockington-Hemington, Hemington, North West Leicestershire, Leicestershire, East Midlands, England, DE72 2HN, United Kingdom","DE72 2HN"
8496,1,10333,-1.73635146143467,52.8849143648012,0.00266193433895297,0.0221827861579414,"A50, Foston and Scropton CP, Foston, South Derbyshire, Derbyshire, East Midlands, England, DE65 5DN, United Kingdom","DE65 5DN"
8501,1,10336,-1.38611780736567,52.9146538719974,0.00798580301685892,0.0292812777284827,"Brian Clough Way, Spondon, Derby, East Midlands, England, DE21 7FX, United Kingdom","DE21 7FX"
8504,1,10317,-1.39170882716592,52.8699958039128,0.00354924578527063,0.0292812777284827,"A6, Aston upon Trent CP, Aston-on-Trent, South Derbyshire, Derbyshire, East Midlands, England, DE72 2DX, United Kingdom","DE72 2DX"
8535,1,10412,-2.73992573752045,53.4045481108016,0.0124223602484472,0.0266193433895297,"M62, Rainhill Stoops, Rainhill, St Helens, Liverpool City Region, England, L35 6PZ, United Kingdom","L35 6PZ"
8536,1,10411,-2.7398323821155,53.4043689150964,0.0124223602484472,0.0266193433895297,"M62, Rainhill Stoops, Rainhill, St Helens, Liverpool City Region, England, L35 6PZ, United Kingdom","L35 6PZ"
8551,1,10514,-1.20740654445933,53.5431730575898,0.00532386867790594,0.0204081632653061,"Doncaster By-pass, Marr, Brodsworth, Doncaster, Sheffield City Region, England, DN5 7UZ, United Kingdom","DN5 7UZ"
8552,1,10513,-1.20716377802448,53.5432433576331,0.00532386867790594,0.0204081632653061,"Doncaster By-pass, Marr, Brodsworth, Doncaster, Sheffield City Region, England, DN5 7UZ, United Kingdom","DN5 7UZ"
8560,1,10491,-0.181650877039208,53.5954639694828,0.00354924578527063,0.0204081632653061,"A180, Brickpitt Farm, Stallingborough, Habrough, North East Lincolnshire, Yorkshire and the Humber, England, DN40 3BH, United Kingdom","DN40 3BH"
8561,1,10490,-0.181120012941785,53.5955098429323,0.00354924578527063,0.0257320319432121,"A180, Brickpitt Farm, Stallingborough, Habrough, North East Lincolnshire, Yorkshire and the Humber, England, DN40 3BH, United Kingdom","DN40 3BH"
8568,1,10496,-0.416035296714367,53.7206767957254,0.00443655723158829,0.0230700976042591,"Clive Sullivan Way, Gipsyville, Hull, Kingston upon Hull, Yorkshire and the Humber, England, HU13 0EB, United Kingdom","HU13 0EB"
8569,1,10495,-0.416009719717739,53.7205506035417,0.00709849157054126,0.0275066548358474,"Clive Sullivan Way, Hull, Kingston upon Hull, Yorkshire and the Humber, England, HU4 7DY, United Kingdom","HU4 7DY"
8573,1,10477,-0.377447550917463,53.7278298384161,0.00266193433895297,0.0221827861579414,"Clive Sullivan Way, Gipsyville, Hull, Kingston upon Hull, Yorkshire and the Humber, England, HU3 4XQ, United Kingdom","HU3 4XQ"
8582,1,10472,-0.593576776637579,53.7603416488608,0.00354924578527063,0.0221827861579414,"Petuaria Way, Brantingham, East Riding of Yorkshire, Yorkshire and the Humber, England, HU15 1SB, United Kingdom","HU15 1SB"
8583,1,10471,-0.59359374173087,53.7602879148785,0.00354924578527063,0.0221827861579414,"Petuaria Way, Brantingham, East Riding of Yorkshire, Yorkshire and the Humber, England, HU15 1SB, United Kingdom","HU15 1SB"
8596,1,10446,-1.63935088408081,53.748663636776,0.00709849157054126,0.0266193433895297,"M621, Drighlington, Leeds, Drighlington, West Yorkshire, England, LS27 7FA, United Kingdom","LS27 7FA"
8606,1,10461,-1.53882181462089,53.779769046385,0.00354924578527063,0.0221827861579414,"M621, Hunslet, Leeds, West Yorkshire, England, LS10 1AQ, United Kingdom","LS10 1AQ"
8609,1,10452,-1.56530016111501,53.780002568631,0.00266193433895297,0.0230700976042591,"M621, Holbeck, Leeds, West Yorkshire, England, LS11 0BH, United Kingdom","LS11 0BH"
8610,1,10451,-1.56525612128724,53.7798586005952,0.00266193433895297,0.0230700976042591,"M621, Holbeck, Leeds, West Yorkshire, England, LS11 0BH, United Kingdom","LS11 0BH"
8622,1,10580,-2.33253791169196,53.7044049229806,0.00443655723158829,0.0212954747116238,"Haslingden Bypass, Acre, Haslingden, Rossendale, Lancashire, North West England, England, BB4 5HU, United Kingdom","BB4 5HU"
8626,1,10605,-2.9410937523292,53.8001838396174,0.00976042590949423,0.0257320319432121,"M55, Weeton-with-Preese, Weeton, Fylde, Lancashire, North West England, England, PR4 3WD, United Kingdom","PR4 3WD"
8627,1,10571,-2.80519947633391,53.8030533387213,0.00443655723158829,0.0204081632653061,"M55, Newton-with-Clifton, Fylde, Lancashire, North West England, England, PR4 0HB, United Kingdom","PR4 0HB"
8639,1,10608,-2.72816490044597,53.5322054761328,0.00798580301685892,0.028393966282165,"M58, Tontine, Up Holland, Upholland, West Lancashire, Lancashire, North West England, England, WN8 9QG, United Kingdom","WN8 9QG"
8673,1,10575,-2.42872982054851,53.7446982964499,0.00443655723158829,0.0204081632653061,"M65, Higher Springfield, Yate and Pickup Bank, Guide, Blackburn with Darwen, North West England, England, BB1 2RJ, United Kingdom","BB1 2RJ"
8675,1,10577,-2.34946856135982,53.776736930398,0.00266193433895297,0.0221827861579414,"M65, Altham, Huncoat, Hyndburn, Lancashire, North West England, England, BB5 5DD, United Kingdom","BB5 5DD"
8686,1,10718,-1.4058337116517,54.8525155401387,0.00532386867790594,0.0275066548358474,"A19, Old Burdon Farm, Burdon, Houghton-le-Spring, Sunderland, Tyne and Wear, North East, England, SR3 2PU, United Kingdom","SR3 2PU"
8697,1,10620,-1.05324451079318,53.9256769063646,0.0062111801242236,0.0230700976042591,"York By-Pass, Fulford, Murton, York, Yorkshire and the Humber, England, YO19 4QY, United Kingdom","YO19 4QY"
8699,1,10622,-1.01969380949055,53.9751926311127,0.00798580301685892,0.0257320319432121,"York By-Pass, Heworth Without, Murton, York, Yorkshire and the Humber, England, YO19 5XB, United Kingdom","YO19 5XB"
8712,1,10669,-1.43638175321666,54.5406618708581,0.00709849157054126,0.0292812777284827,"A66, Hangthorn Farm, Longnewton, Stockton-on-Tees, Tees Valley, England, DL2 1SZ, United Kingdom","DL2 1SZ"
8760,1,10774,-2.64998929223029,54.508903291052,0.0062111801242236,0.0266193433895297,"M6, Shap, Eden, Cumbria, North West England, England, CA10 3QG, United Kingdom","CA10 3QG"
8780,1,10893,-1.59081165910391,54.9133976347209,0.00709849157054126,0.0257320319432121,"A1, Eighton Banks, Lamesley, Gateshead, Tyne and Wear, North East, England, NE9 7UA, United Kingdom","NE9 7UA"
8781,1,10892,-1.59059191872347,54.9135316900426,0.00709849157054126,0.0275066548358474,"Angel of the North, A1, Eighton Banks, Lamesley, Gateshead, Tyne and Wear, North East, England, NE9 7UA, United Kingdom","NE9 7UA"
8788,1,10885,-1.63161646932994,54.9426251538304,0.00266193433895297,0.0204081632653061,"Lobley Hill, A1, Lobley Hill, Gateshead, Tyne and Wear, North East, England, NE11 0PZ, United Kingdom","NE11 0PZ"
8789,1,10884,-1.6313351705009,54.9426602495088,0.00266193433895297,0.0204081632653061,"A1, Lobley Hill, Gateshead, Tyne and Wear, North East, England, NE11 0PZ, United Kingdom","NE11 0PZ"
8792,1,10881,-1.63909619219435,54.9475718660223,0.00354924578527063,0.0212954747116238,"A1, Dunston, Gateshead, Tyne and Wear, North East, England, NE11 9TJ, United Kingdom","NE11 9TJ"
8793,1,10880,-1.63890756861641,54.9477150861119,0.00354924578527063,0.0212954747116238,"A1, Dunston, Gateshead, Tyne and Wear, North East, England, NE11 9TJ, United Kingdom","NE11 9TJ"
8831,1,10812,-2.02491489834855,55.7482739407026,0.00709849157054126,0.028393966282165,"A1, Tweedmouthmoor, Ord, East Ord, Northumberland, North of Tyne, England, TD15 2LS, United Kingdom","TD15 2LS"
8844,1,10828,-1.5298077288084,55.0337821983719,0.00798580301685892,0.0266193433895297,"A19, Killingworth, Backworth, North Tyneside, North of Tyne, England, NE27 0GP, United Kingdom","NE27 0GP"
8846,1,10826,-1.55475061557693,55.0503832276575,0.00266193433895297,0.0230700976042591,"A19, Hedley High West Farm, Seaton Valley, Seghill, Northumberland, North of Tyne, England, NE23 7LW, United Kingdom","NE23 7LW"
8849,1,10837,-1.5426269884412,54.9189771183699,0.00709849157054126,0.0230700976042591,"A194(M), Peareth Hall Farm, Washington, Sunderland, Tyne and Wear, North East, England, NE37 1BF, United Kingdom","NE37 1BF"
8851,1,10897,-2.39670499202781,54.9711364697787,0.00976042590949423,0.0266193433895297,"A69, Henshaw, Melkridge, Northumberland, North of Tyne, England, NE47 7EX, United Kingdom","NE47 7EX"
8852,1,10896,-2.39668892837925,54.9710915912033,0.00976042590949423,0.0266193433895297,"A69, Henshaw, Melkridge, Northumberland, North of Tyne, England, NE47 7EX, United Kingdom","NE47 7EX"
8869,1,9276,-1.37318197378719,50.9749870229023,0.00354924578527063,0.0204081632653061,"7, M3, Newtown, Eastleigh, Southampton, Eastleigh, Hampshire, South East England, England, SO50 9YA, United Kingdom","SO50 9YA"
8870,1,9275,-1.37298342841626,50.9749230086823,0.00532386867790594,0.0239574090505768,"7, M3, Newtown, Eastleigh, Southampton, Eastleigh, Hampshire, South East England, England, SO50 9YA, United Kingdom","SO50 9YA"
8900,1,9410,0.735476683682224,51.3701998544011,0.00354924578527063,0.0212954747116238,"A249, Howt Green, Bobbing, Swale, Kent, South East England, England, ME10 5JD, United Kingdom","ME10 5JD"
8901,1,9409,0.735740751414485,51.3700497828394,0.00354924578527063,0.0212954747116238,"A249, Howt Green, Bobbing, Swale, Kent, South East England, England, ME10 5JD, United Kingdom","ME10 5JD"
8925,1,9283,-1.49245695607449,51.1965429121344,0.00887311446317657,0.0292812777284827,"A303, Upper Clatford, Test Valley, Hampshire, South East England, England, SP10 2BF, United Kingdom","SP10 2BF"
8930,1,9850,-0.259868767455208,52.2098422755239,0.00354924578527063,0.0221827861579414,"A428, Abbotsley, Huntingdonshire, Cambridgeshire, Cambridgeshire and Peterborough, England, PE19 2RF, United Kingdom","PE19 2RF"
8931,1,9851,-0.259856245662421,52.2097881415529,0.00532386867790594,0.0266193433895297,"A428, Abbotsley, Huntingdonshire, Cambridgeshire, Cambridgeshire and Peterborough, England, PE19 2RF, United Kingdom","PE19 2RF"
8935,1,10234,-1.42391352033466,52.4322892427084,0.00709849157054126,0.0212954747116238,"Coventry Eastern Bypass, Ansty CP, Rugby, Warwickshire, England, CV2 2TU, United Kingdom","CV2 2TU"
8968,1,9414,0.712274786583769,51.3530122721837,0.0133096716947649,0.0266193433895297,"A249, Bobbing, Swale, Kent, South East England, England, ME10 5AS, United Kingdom","ME10 5AS"
8972,1,9503,-0.156265585675724,51.2794991081056,0.00443655723158829,0.0239574090505768,"M23, Harps Oak, Netherne-on-the-Hill, Reigate and Banstead, Surrey, South East England, England, RH1 3AA, United Kingdom","RH1 3AA"
8973,1,9504,-0.151286469132097,51.2742316597505,0.0124223602484472,0.0266193433895297,"Air Shaft, M23, Merstham, Reigate and Banstead, Surrey, South East England, England, RH1 3BS, United Kingdom","RH1 3BS"
8975,1,9506,0.050456107132512,51.6112798622062,0.00976042590949423,0.0275066548358474,"M11, Chigwell, London Borough of Redbridge, Epping Forest, Essex, East of England, England, IG8 8HU, United Kingdom","IG8 8HU"
8998,1,10272,-2.13391012647805,52.9847849499405,0.00709849157054126,0.0292812777284827,"A50, Normacot, Longton, Stoke-on-Trent, England, ST3 1QZ, United Kingdom","ST3 1QZ"
9011,1,9839,-1.13250593187166,52.3121237925161,0.00976042590949423,0.0266193433895297,"Watling Street, Watford Gap, Watford, West Northamptonshire, East Midlands, England, NN6 7UJ, United Kingdom","NN6 7UJ"
9013,1,9855,-1.87744982753744,52.1850966157085,0.00266193433895297,0.0230700976042591,"A46, Salford Priors CP, Broom, Stratford-on-Avon, Warwickshire, England, WR11 8SW, United Kingdom","WR11 8SW"
9018,1,10346,-1.47704760334588,52.9511717971075,0.0062111801242236,0.0257320319432121,"Abbey Hill, Darley Abbey, Derby, East Midlands, England, DE22 2UL, United Kingdom","DE22 2UL"
9030,1,9145,-1.91530336736406,51.1654647274893,0.00532386867790594,0.0221827861579414,"A303, Berwick St. James, Winterbourne Stoke, Wiltshire, South West England, England, SP3 4TF, United Kingdom","SP3 4TF"
9031,1,9144,-1.9152748291538,51.1654287384602,0.00532386867790594,0.0221827861579414,"A303, Berwick St. James, Winterbourne Stoke, Wiltshire, South West England, England, SP3 4TF, United Kingdom","SP3 4TF"
9042,1,9104,-1.77087731289478,50.8488037692678,0.0124223602484472,0.0275066548358474,"A31, Ringwood, Poulner, New Forest, Hampshire, South East England, England, BH24 1UF, United Kingdom","BH24 1UF"
9046,1,9279,-0.644892526705386,51.215617157865,0.0124223602484472,0.0266193433895297,"Guildford and Godalming Bypass, Compton, Guildford, Surrey, South East England, England, GU3 1DW, United Kingdom","GU3 1DW"
9080,1,9840,-1.17651652708859,51.9820243938141,0.0124223602484472,0.0257320319432121,"A43, Stoke Lyne, Fewcott, Cherwell, Oxfordshire, South East England, England, NN13 5RU, United Kingdom","NN13 5RU"
9084,1,10065,-2.71969268768606,52.051263933692,0.00976042590949423,0.028393966282165,"Victoria Street, Portfields, Hereford, Herefordshire, England, HR4 0FD, United Kingdom","HR4 0FD"
9085,1,10066,-2.71961949140948,52.0512463994414,0.00976042590949423,0.028393966282165,"Victoria Street, Portfields, Hereford, Herefordshire, England, HR4 9DW, United Kingdom","HR4 9DW"
9090,1,10176,-2.19714695202194,52.9829889730792,0.00266193433895297,0.0212954747116238,"Queensway, Oakhill, Stoke, Stoke-on-Trent, England, ST4 4RF, United Kingdom","ST4 4RF"
9138,1,10808,-2.80932279491457,54.2614553425028,0.00443655723158829,0.0230700976042591,"A590, Causeway End, Levens, South Lakeland, Cumbria, North West England, England, LA8 8EJ, United Kingdom","LA8 8EJ"
9139,1,10846,-1.78684582092624,55.0042365615581,0.00532386867790594,0.0221827861579414,"A69, Heddon-on-the-Wall, Northumberland, North of Tyne, England, NE15 0HB, United Kingdom","NE15 0HB"
9149,1,9427,0.265548071964979,50.8257373788868,0.00443655723158829,0.0212954747116238,"Polegate Bypass, Westham, Polegate, Wealden, East Sussex, South East England, England, BN26 6GP, United Kingdom","BN26 6GP"
9156,1,10433,-0.560870605739293,53.5447926589344,0.0062111801242236,0.0275066548358474,"M180, Bracken Hill Farm, Broughton, North Lincolnshire, Yorkshire and the Humber, England, DN16 3RE, United Kingdom","DN16 3RE"
9157,1,10434,-0.561007750835904,53.5443089001581,0.0062111801242236,0.0275066548358474,"M180, Vicarage Farm, Scawby, North Lincolnshire, Yorkshire and the Humber, England, DN16 3RE, United Kingdom","DN16 3RE"
9159,1,10435,-0.553318551954767,53.5445217653421,0.00443655723158829,0.0239574090505768,"M180, Bracken Hill Farm, Broughton, North Lincolnshire, Yorkshire and the Humber, England, DN16 3RE, United Kingdom","DN16 3RE"
9179,1,10550,-0.91175239158299,53.7050996117986,0.0062111801242236,0.0257320319432121,"M62, Airmyn, Goole, East Riding of Yorkshire, Yorkshire and the Humber, England, DN14 8JS, United Kingdom","DN14 8JS"
9180,1,10549,-0.912109785775209,53.7047523007597,0.0062111801242236,0.0257320319432121,"M62, Airmyn, Goole, East Riding of Yorkshire, Yorkshire and the Humber, England, DN14 8JS, United Kingdom","DN14 8JS"
9189,1,8957,-5.51256963814158,50.1297205597737,0.00354924578527063,0.0212954747116238,"A30, Ludgvan, Gulval, Longrock, Cornwall, South West England, England, TR20 8, United Kingdom","TR20 8"
9197,1,10523,-1.15278614754802,53.4776761749691,0.00887311446317657,0.0292812777284827,"M18, Wadworth, Doncaster, Sheffield City Region, England, DN11 9DT, United Kingdom","DN11 9DT"
9210,1,10534,-0.987927895273515,53.5936798384664,0.00266193433895297,0.0221827861579414,"M18, Hatfield, Doncaster, Yorkshire and the Humber, England, DN7 6EW, United Kingdom","DN7 6EW"
9211,1,10533,-0.987653839891842,53.5937674070455,0.00266193433895297,0.0221827861579414,"M18, Hatfield, Doncaster, Yorkshire and the Humber, England, DN7 6EW, United Kingdom","DN7 6EW"
9224,1,9884,-2.71212762463416,52.3336091214635,0.00354924578527063,0.0204081632653061,"Ludlow Road, Richard's Castle, Ashford Bowdler, Shropshire, England, SY8 4AQ, United Kingdom","SY8 4AQ"
9225,1,9885,-2.71203943345022,52.3336006632304,0.00354924578527063,0.0204081632653061,"Ludlow Road, Richard's Castle, Ashford Bowdler, Shropshire, England, SY8 4AQ, United Kingdom","SY8 4AQ"
9236,1,10285,-1.9225208206238,52.6617994230536,0.00887311446317657,0.0292812777284827,"M6 Toll, Hammerwich, Lichfield, Staffordshire, England, WS7 4RA, United Kingdom","WS7 4RA"
9240,1,10288,-1.82419509356836,52.64438971166,0.00354924578527063,0.0230700976042591,"M6 Toll, Shenstone, Lichfield, Staffordshire, England, WS14 0GR, United Kingdom","WS14 0GR"
9255,1,10299,-2.06175237242699,52.6617993247279,0.00266193433895297,0.0221827861579414,"Wolverhampton Road, Saredon, Shareshill, South Staffordshire, Staffordshire, England, WV10 7LU, United Kingdom","WV10 7LU"
9287,1,10918,-2.19170807339683,52.9858115646195,0.00532386867790594,0.0221827861579414,"Sainsbury's Distribution Centre, Queensway, Sideway, Stoke, Stoke-on-Trent, England, ST4 4GU, United Kingdom","ST4 4GU"
9288,1,10919,-2.19151395532618,52.9857040052905,0.00532386867790594,0.0221827861579414,"Queensway, Sideway, Stoke, Stoke-on-Trent, England, ST4 4GU, United Kingdom","ST4 4GU"
9316,1,10948,-1.40837761657747,53.0720169354114,0.00266193433895297,0.0204081632653061,"A38, Pentrich CP, Amber Valley, Derbyshire, East Midlands, England, DE55 1BW, United Kingdom","DE55 1BW"
9317,1,10949,-1.40854424845656,53.0718379792389,0.00266193433895297,0.0204081632653061,"A38, Pentrich CP, Amber Valley, Derbyshire, East Midlands, England, DE55 1BW, United Kingdom","DE55 1BW"
9318,1,10950,-1.75688814706459,52.8851467819232,0.00443655723158829,0.0239574090505768,"A50, Aston, Sudbury CP, Derbyshire Dales, Derbyshire, East Midlands, England, DE6 5HY, United Kingdom","DE6 5HY"
9319,1,10951,-1.75700743689425,52.8850751095947,0.00443655723158829,0.0239574090505768,"A50, Aston, Sudbury CP, Derbyshire Dales, Derbyshire, East Midlands, England, DE6 5HY, United Kingdom","DE6 5HY"
9326,1,10958,-0.231201986474042,52.0539410404906,0.00266193433895297,0.028393966282165,"London Road, Edworth, Biggleswade, Central Bedfordshire, East of England, England, SG18 9TD, United Kingdom","SG18 9TD"
9370,1,9914,-0.306410701221611,53.7471898975446,0.00354924578527063,0.0239574090505768,"Roger Millward Way, Victoria Dock, Hull, Kingston upon Hull, Yorkshire and the Humber, England, HU9 1RA, United Kingdom","HU9 1RA"
9371,1,9915,-0.306481786844649,53.7473077613351,0.00354924578527063,0.0230700976042591,"Roger Millward Way, Victoria Dock, Hull, Kingston upon Hull, Yorkshire and the Humber, England, HU9 1RA, United Kingdom","HU9 1RA"
9372,1,9916,-0.315057027871688,53.7456217373454,0.00976042590949423,0.0248447204968944,"Roger Millward Way, South Orbital Trading Park (West), Drypool, Hull, Kingston upon Hull, Yorkshire and the Humber, England, HU9 1NL, United Kingdom","HU9 1NL"
9373,1,9917,-0.315955853931674,53.7451399556961,0.00976042590949423,0.0248447204968944,"Roger Millward Way, South Orbital Trading Park (West), Drypool, Hull, Kingston upon Hull, Yorkshire and the Humber, England, HU9 1NL, United Kingdom","HU9 1NL"
9375,1,9920,-0.663160441290101,53.1596903901174,0.0062111801242236,0.0221827861579414,"Fosse Way, Sheep Walks Farm, Witham St. Hughs, Witham St Hughs, North Kesteven, Lincolnshire, East Midlands, England, LN5 9EJ, United Kingdom","LN5 9EJ"
9376,1,9945,-3.50093005388479,54.6233053357645,0.00443655723158829,0.0221827861579414,"Winscales Road, Lillyhall, Winscales, Bridgefoot, Allerdale, Cumbria, North West England, England, CA14 1XR, United Kingdom","CA14 1XR"
9427,1,10034,-0.811625472760584,52.2500631225021,0.00443655723158829,0.0230700976042591,"Nene Valley Way, Blackthorn, Northampton, West Northamptonshire, East Midlands, England, NN3 9SJ, United Kingdom","NN3 9SJ"
9428,1,10035,-0.811450693576335,52.2500253974996,0.00443655723158829,0.0230700976042591,"Nene Valley Way, Blackthorn, Northampton, West Northamptonshire, East Midlands, England, NN3 9SJ, United Kingdom","NN3 9SJ"
9432,1,10039,-0.839462395428934,52.2437320104638,0.00798580301685892,0.028393966282165,"Nene Valley Way, Cottarville, Northampton, West Northamptonshire, East Midlands, England, NN3 9HQ, United Kingdom","NN3 9HQ"
9447,1,9976,0.477265757419562,51.8737354467303,0.00354924578527063,0.0212954747116238,"A120, Gransmore Green, Felsted, Uttlesford, Essex, East of England, England, CM77 6SB, United Kingdom","CM77 6SB"
9467,1,9998,-0.347560478229411,52.1686451131298,0.00976042590949423,0.028393966282165,"Great Barford Bypass, Wyboston, Chawston and Colesden, Great Barford, Bedford, East of England, England, MK44 3DX, United Kingdom","MK44 3DX"
9468,1,9999,-0.100940204808559,52.2291517220732,0.00709849157054126,0.0266193433895297,"A428, Cambourne, South Cambridgeshire, Cambridgeshire, Cambridgeshire and Peterborough, England, CB23 3AS, United Kingdom","CB23 3AS"
9560,1,9040,-2.36343824405329,51.4755007634065,0.0062111801242236,0.0275066548358474,"Dyrham Park, A46, Dyrham and Hinton, West Littleton, Tormarton, South Gloucestershire, South West England, England, SN14 8LF, United Kingdom","SN14 8LF"
9561,1,9041,-2.36340930444528,51.4754828698145,0.0062111801242236,0.0275066548358474,"Dyrham Park, A46, Dyrham and Hinton, West Littleton, Tormarton, South Gloucestershire, South West England, England, SN14 8LF, United Kingdom","SN14 8LF"
9578,1,9235,-2.30045937769768,51.2870491717847,0.0062111801242236,0.028393966282165,"A36, Rode Manor, Tellisford, Woolverton, Mendip, Somerset, South West England, England, BA2 7QS, United Kingdom","BA2 7QS"
9579,1,9236,-2.3005020421496,51.2869951099278,0.0062111801242236,0.028393966282165,"A36, Rode Manor, Tellisford, Woolverton, Mendip, Somerset, South West England, England, BA2 7QS, United Kingdom","BA2 7QS"
9587,1,10741,-2.91622091831759,54.2331699937013,0.0062111801242236,0.0239574090505768,"A590, Low Newton, Upper Allithwaite, High Newton, South Lakeland, Cumbria, North West England, England, LA11 6JQ, United Kingdom","LA11 6JQ"
9588,1,10805,-2.98877820052803,54.2545888944058,0.00532386867790594,0.0221827861579414,"By-pass Northbound, A590, Haverthwaite, Backbarrow, South Lakeland, Cumbria, North West England, England, LA12 8PU, United Kingdom","LA12 8PU"
9609,1,532,-0.227292661387324,51.7970624265478,0.000887311446317658,0.0248447204968944,"5, Lemsford Interchange, Hatfield, Lemsford, Welwyn Hatfield, Hertfordshire, East of England, England, AL8 7TN, United Kingdom","AL8 7TN"
9663,1,929,-1.02827184258724,50.8397596348647,0.000887311446317658,0.0266193433895297,"A27, Farlington, Portsmouth, South East England, England, PO6 1LW, United Kingdom","PO6 1LW"
9666,1,1061,-0.380425739510563,51.7045582253113,0.000887311446317658,0.0257320319432121,"M1, Abbots Langley, Garston Manor, Three Rivers, Hertfordshire, East of England, England, AL2 3UU, United Kingdom","AL2 3UU"
9779,1,990,-1.0057531137339,50.8848579607293,0.000887311446317658,0.0266193433895297,"Waterlooville Bypass, Cowplain, Havant, Hampshire, South East England, England, PO7 8RE, United Kingdom","PO7 8RE"
9810,1,933,-1.01492789960672,50.8455110414947,0.000887311446317658,0.0275066548358474,"Bedhampton, Havant, Hampshire, South East England, England, PO9 3LW, United Kingdom","PO9 3LW"
9822,1,1038,-0.263410313921158,51.6324941755928,0.000887311446317658,0.0248447204968944,"Mill Hill Golf Course, Morley Crescent, Broadfields, Edgware, London Borough of Barnet, London, Greater London, England, HA8 8XE, United Kingdom","HA8 8XE"
9839,1,1040,-0.263140040977492,51.6323822650646,0.000887311446317658,0.0266193433895297,"Mill Hill Golf Course, Morley Crescent, Broadfields, Edgware, London Borough of Barnet, London, Greater London, England, HA8 8XE, United Kingdom","HA8 8XE"
9856,1,932,-1.01474799498924,50.8452846963722,0.000887311446317658,0.028393966282165,"A27, Bedhampton, Havant, Hampshire, South East England, England, PO9 3JH, United Kingdom","PO9 3JH"
9865,1,4164,-1.09146887580931,50.8414464264857,0.000887311446317658,0.0221827861579414,"M27, Port Solent, Portsmouth, South East England, England, PO6 4SB, United Kingdom","PO6 4SB"
10011,1,2494,0.195114197016117,51.8662815052666,0.000887311446317658,0.0292812777284827,"Priory Wood, M11, Great Hallingbury, Uttlesford, Essex, East of England, England, CM23 5QZ, United Kingdom","CM23 5QZ"
10012,1,979,-1.01266966083723,50.8515621171815,0.000887311446317658,0.0292812777284827,"A3(M), Bedhampton, Havant, Hampshire, South East England, England, PO9 3NZ, United Kingdom","PO9 3NZ"
10045,1,565,-0.208344719624975,51.8342093040605,0.000887311446317658,0.0292812777284827,"A1(M), Welwyn, Oaklands, Welwyn Hatfield, Hertfordshire, East of England, England, AL6 9FP, United Kingdom","AL6 9FP"
10060,1,2495,0.195316782390894,51.8668622427465,0.000887311446317658,0.028393966282165,"M11, Tilekiln Green, Great Hallingbury, Uttlesford, Essex, East of England, England, CM23 5SN, United Kingdom","CM23 5SN"
10068,1,987,-1.01187671461456,50.8776345760661,0.000887311446317658,0.0248447204968944,"Waterlooville Bypass, Bedhampton, Havant, Hampshire, South East England, England, PO7 8EX, United Kingdom","PO7 8EX"
10110,1,4165,-1.09109860147686,50.8414975063874,0.000887311446317658,0.0248447204968944,"M27, Port Solent, Tipner, Portsmouth, South East England, England, PO6 4PS, United Kingdom","PO6 4PS"
10121,1,989,-1.00565668327341,50.8847132542237,0.000887311446317658,0.0266193433895297,"Waterlooville Bypass, Cowplain, Havant, Hampshire, South East England, England, PO7 8RE, United Kingdom","PO7 8RE"
10126,1,931,-1.01942454294342,50.8437682796155,0.000887311446317658,0.028393966282165,"A27, Bedhampton, Havant, Hampshire, South East England, England, PO9 3LW, United Kingdom","PO9 3LW"
10260,1,3764,0.026445832081879,51.6782524112452,0.000887311446317658,0.0275066548358474,"M25, Waltham Abbey, Epping Forest, Essex, East of England, England, EN9 3QY, United Kingdom","EN9 3QY"
10279,1,3765,0.03066788530943,51.6785392239868,0.000887311446317658,0.0275066548358474,"Junction 26 Diner, Honey Lane, Waltham Abbey, Epping Forest, Essex, East of England, England, EN9 3QU, United Kingdom","EN9 3QU"
10400,1,3751,-0.006119125181039,51.6804549074549,0.000887311446317658,0.0275066548358474,"M25, Waltham Abbey, Epping Forest, Essex, East of England, England, EN9 1JU, United Kingdom","EN9 1JU"
10444,1,3792,0.097514488739786,51.6889744441906,0.000887311446317658,0.0292812777284827,"M25, Epping, Ivy Chimneys, Epping Forest, Essex, East of England, England, CM16 4DU, United Kingdom","CM16 4DU"
10510,1,3768,0.031963074427241,51.6783909271233,0.000887311446317658,0.0275066548358474,"M25, Waltham Abbey, Epping Forest, Essex, East of England, England, EN9 3QY, United Kingdom","EN9 3QY"
10602,1,2943,0.243555816146422,51.4535434245876,0.000887311446317658,0.0248447204968944,"Canterbury Way, Stone, Dartford, Kent, South East England, England, DA1 5PR, United Kingdom","DA1 5PR"
10608,1,2944,0.243584137309442,51.4535338881839,0.000887311446317658,0.0248447204968944,"Canterbury Way, Stone, Dartford, Kent, South East England, England, DA1 5PR, United Kingdom","DA1 5PR"
10684,1,11003,-0.418569080465247,51.8564673363007,0.0062111801242236,0.0230700976042591,"New Airport Way, Hyde, Central Bedfordshire, East of England, England, LU1 4LB, United Kingdom","LU1 4LB"
10685,1,11004,-0.418913642820383,51.8565798730822,0.0062111801242236,0.0230700976042591,"New Airport Way, Hyde, Central Bedfordshire, East of England, England, LU1 4LB, United Kingdom","LU1 4LB"
10686,1,9796,-0.747175401799429,52.3886728024148,0.00443655723158829,0.0212954747116238,"A14, Pytchley, Kettering, North Northamptonshire, East Midlands, England, NN14 1RW, United Kingdom","NN14 1RW"
10690,1,10059,-1.41030510252498,52.8933273101137,0.00443655723158829,0.0212954747116238,"Elvaston Lane, Alvaston, Derby, East Midlands, England, DE24 0SS, United Kingdom","DE24 0SS"
14048,1,1997,-1.33187039373206,53.2435733158366,0.000887311446317658,0.0257320319432121,"M1, Poolsbrook, Staveley CP, Duckmanton, Chesterfield, Derbyshire, East Midlands, England, S44 5HS, United Kingdom","S44 5HS"
14060,1,2013,-1.30610089898555,53.2664854662152,0.000887311446317658,0.0248447204968944,"M1, Staveley CP, Mastin Moor, Chesterfield, Derbyshire, East Midlands, England, S43 3DB, United Kingdom","S43 3DB"
14087,1,2009,-1.31662566555984,53.2589767829586,0.000887311446317658,0.0221827861579414,"M1, Poolsbrook, Staveley CP, Duckmanton, Chesterfield, Derbyshire, East Midlands, England, S43 3DB, United Kingdom","S43 3DB"
14095,1,2010,-1.3101040786312,53.2627509106489,0.000887311446317658,0.0248447204968944,"M1, Woodthorpe, Staveley CP, Duckmanton, Chesterfield, Derbyshire, East Midlands, England, S43 3DB, United Kingdom","S43 3DB"
14125,1,1984,-1.33238710337434,53.2286450277517,0.00443655723158829,0.028393966282165,"M1, Poolsbrook, Staveley CP, Duckmanton, Chesterfield, Derbyshire, East Midlands, England, S44 5HS, United Kingdom","S44 5HS"
14132,1,1940,-1.32958204057165,53.1491940054852,0.000887311446317658,0.0239574090505768,"M1, Tibshelf, Bolsover, Derbyshire, East Midlands, England, DE55 5TZ, United Kingdom","DE55 5TZ"
14142,1,2008,-1.31675857462771,53.2591034075216,0.000887311446317658,0.0221827861579414,"M1, Woodthorpe, Staveley CP, Duckmanton, Chesterfield, Derbyshire, East Midlands, England, S43 3DB, United Kingdom","S43 3DB"
14146,1,2001,-1.32891054862162,53.2488879394686,0.000887311446317658,0.0230700976042591,"M1, Poolsbrook, Staveley CP, Duckmanton, Chesterfield, Derbyshire, East Midlands, England, S44 5HP, United Kingdom","S44 5HP"
14157,1,54,-1.15746828943845,52.3981362519249,0.000887311446317658,0.0221827861579414,"A14, Clay Coton, West Northamptonshire, East Midlands, England, NN6 6JT, United Kingdom","NN6 6JT"
14163,1,2000,-1.32955214848452,53.2490713562161,0.000887311446317658,0.0248447204968944,"M1, Poolsbrook, Staveley CP, Duckmanton, Chesterfield, Derbyshire, East Midlands, England, S44 5HP, United Kingdom","S44 5HP"
14177,1,1948,-1.32444267273348,53.1641764892278,0.000887311446317658,0.028393966282165,"M1, Tibshelf, Bolsover, Derbyshire, East Midlands, England, DE55 5TZ, United Kingdom","DE55 5TZ"
14183,1,2007,-1.31986368707473,53.2570804653053,0.000887311446317658,0.0248447204968944,"M1, Poolsbrook, Staveley CP, Duckmanton, Chesterfield, Derbyshire, East Midlands, England, S43 3DB, United Kingdom","S43 3DB"
14219,1,2005,-1.32375975334392,53.2543067769124,0.000887311446317658,0.0212954747116238,"M1, Poolsbrook, Staveley CP, Duckmanton, Chesterfield, Derbyshire, East Midlands, England, S43 3DB, United Kingdom","S43 3DB"
14220,1,1928,-1.3305619374741,53.1255853922648,0.000887311446317658,0.0266193433895297,"M1, Old Blackwell, Blackwell, Bolsover, Derbyshire, East Midlands, England, DE55 5SD, United Kingdom","DE55 5SD"
14232,1,2026,-1.29673085477988,53.2837246651195,0.000887311446317658,0.0239574090505768,"M1, Barlborough, Bolsover, Derbyshire, East Midlands, England, S43 4TX, United Kingdom","S43 4TX"
14239,1,1999,-1.32979272644247,53.2480568132375,0.000887311446317658,0.0230700976042591,"M1, Poolsbrook, Staveley CP, Duckmanton, Chesterfield, Derbyshire, East Midlands, England, S44 5HP, United Kingdom","S44 5HP"
14256,1,1962,-1.32399588838454,53.1916711576457,0.000887311446317658,0.028393966282165,"M1, Ault Hucknall, Bolsover, North East Derbyshire, Derbyshire, East Midlands, England, S44 5SJ, United Kingdom","S44 5SJ"
14266,1,1936,-1.33123667719517,53.1408525547664,0.000887311446317658,0.0248447204968944,"M1, Tibshelf, Bolsover, Derbyshire, East Midlands, England, DE55 5TZ, United Kingdom","DE55 5TZ"
14268,1,2004,-1.32389224577251,53.2544603614466,0.000887311446317658,0.0221827861579414,"M1, Woodthorpe, Staveley CP, Duckmanton, Chesterfield, Derbyshire, East Midlands, England, S43 3DB, United Kingdom","S43 3DB"
14285,1,1930,-1.32932665127924,53.1291021269194,0.000887311446317658,0.0248447204968944,"M1, Old Blackwell, Blackwell, Bolsover, Derbyshire, East Midlands, England, DE55 5SD, United Kingdom","DE55 5SD"
14291,1,1938,-1.33090619527935,53.1448058530949,0.000887311446317658,0.0266193433895297,"M1, Tibshelf, Bolsover, Derbyshire, East Midlands, England, DE55 5TZ, United Kingdom","DE55 5TZ"
14419,1,10073,-2.41273761468634,53.346803052079,0.0062111801242236,0.0212954747116238,"A556, Hoo Green, Mere, Over Tabley, Cheshire East, North West England, England, WA14 3RU, United Kingdom","WA14 3RU"
17229,1,1232,-0.493391255267488,51.9247969365723,0.000887311446317658,0.0292812777284827,"M1, Chalton, Fancott, Upper Sundon, Central Bedfordshire, East of England, England, LU4 9NB, United Kingdom","LU4 9NB"
17394,1,1546,-1.13993244040598,52.3247917597171,0.000887311446317658,0.0292812777284827,"M1, Watford, Crick, West Northamptonshire, East Midlands, England, NN6 7UH, United Kingdom","NN6 7UH"
17400,1,1568,-1.15534164173737,52.3516495528168,0.000887311446317658,0.028393966282165,"Crick Interchange, Crick, West Northamptonshire, East Midlands, England, NN6 7EX, United Kingdom","NN6 7EX"
17513,1,7360,-2.5780916250861,53.4232934733561,0.000887311446317658,0.0292812777284827,"Peel Hall Farm, M62, Houghton Green, Winwick, Warrington, North West England, England, WA2 0TA, United Kingdom","WA2 0TA"
17523,1,7356,-2.59313134535968,53.4226981940926,0.000887311446317658,0.0275066548358474,"M62, Winwick Quay, Winwick, Warrington, North West England, England, WA2 8QP, United Kingdom","WA2 8QP"
17568,1,1812,-1.25909516448307,52.9674001316357,0.000887311446317658,0.028393966282165,"M1, Trowell Moor, Trowell, Broxtowe, Nottinghamshire, East Midlands, England, NG9 3PL, United Kingdom","NG9 3PL"
